{
"type": "FeatureCollection",
"name": "basins",
"crs": { "type": "name", "properties": { "name": "urn:ogc:def:crs:OGC:1.3:CRS84" } },
"features": [
{ "type": "Feature", "properties": { "river": "Rusizi", "display_name": "Rusizi Basin", "area_km2": 13426.63, "confidence_level": "high", "search_label": "Rusizi", "feature_type": "basin", "draw_order": 1 }, "geometry": { "type": "Polygon", "coordinates": [ [ [ 29.120833333333369, -1.395833333333308 ], [ 29.129166666666706, -1.395833333333308 ], [ 29.129166666666706, -1.4 ], [ 29.133333333333372, -1.4 ], [ 29.133333333333372, -1.404166666666641 ], [ 29.1375, -1.404166666666641 ], [ 29.1375, -1.4 ], [ 29.141666666666705, -1.4 ], [ 29.141666666666705, -1.404166666666641 ], [ 29.191666666666706, -1.404166666666641 ], [ 29.191666666666706, -1.408333333333308 ], [ 29.208333333333371, -1.408333333333308 ], [ 29.208333333333371, -1.4125 ], [ 29.204166666666705, -1.4125 ], [ 29.204166666666705, -1.425 ], [ 29.208333333333371, -1.425 ], [ 29.208333333333371, -1.433333333333308 ], [ 29.2125, -1.433333333333308 ], [ 29.2125, -1.4375 ], [ 29.216666666666704, -1.4375 ], [ 29.216666666666704, -1.458333333333308 ], [ 29.220833333333371, -1.458333333333308 ], [ 29.220833333333371, -1.4625 ], [ 29.225, -1.4625 ], [ 29.225, -1.470833333333308 ], [ 29.229166666666703, -1.470833333333308 ], [ 29.229166666666703, -1.479166666666641 ], [ 29.23333333333337, -1.479166666666641 ], [ 29.23333333333337, -1.483333333333308 ], [ 29.2375, -1.483333333333308 ], [ 29.2375, -1.4875 ], [ 29.23333333333337, -1.4875 ], [ 29.23333333333337, -1.495833333333308 ], [ 29.2375, -1.495833333333308 ], [ 29.2375, -1.5 ], [ 29.241666666666703, -1.5 ], [ 29.241666666666703, -1.504166666666641 ], [ 29.245833333333369, -1.504166666666641 ], [ 29.245833333333369, -1.508333333333308 ], [ 29.25, -1.508333333333308 ], [ 29.25, -1.516666666666641 ], [ 29.254166666666706, -1.516666666666641 ], [ 29.254166666666706, -1.508333333333308 ], [ 29.283333333333371, -1.508333333333308 ], [ 29.283333333333371, -1.504166666666641 ], [ 29.304166666666703, -1.504166666666641 ], [ 29.304166666666703, -1.508333333333308 ], [ 29.308333333333369, -1.508333333333308 ], [ 29.308333333333369, -1.5125 ], [ 29.3375, -1.5125 ], [ 29.3375, -1.516666666666641 ], [ 29.354166666666703, -1.516666666666641 ], [ 29.354166666666703, -1.5125 ], [ 29.42083333333337, -1.5125 ], [ 29.42083333333337, -1.508333333333308 ], [ 29.429166666666703, -1.508333333333308 ], [ 29.429166666666703, -1.504166666666641 ], [ 29.441666666666706, -1.504166666666641 ], [ 29.441666666666706, -1.508333333333308 ], [ 29.454166666666705, -1.508333333333308 ], [ 29.454166666666705, -1.5125 ], [ 29.458333333333371, -1.5125 ], [ 29.458333333333371, -1.516666666666641 ], [ 29.470833333333371, -1.516666666666641 ], [ 29.470833333333371, -1.579166666666641 ], [ 29.466666666666704, -1.579166666666641 ], [ 29.466666666666704, -1.583333333333308 ], [ 29.4625, -1.583333333333308 ], [ 29.4625, -1.5875 ], [ 29.454166666666705, -1.5875 ], [ 29.454166666666705, -1.591666666666641 ], [ 29.45, -1.591666666666641 ], [ 29.45, -1.595833333333308 ], [ 29.445833333333372, -1.595833333333308 ], [ 29.445833333333372, -1.6125 ], [ 29.45, -1.6125 ], [ 29.45, -1.616666666666641 ], [ 29.445833333333372, -1.616666666666641 ], [ 29.445833333333372, -1.620833333333308 ], [ 29.441666666666706, -1.620833333333308 ], [ 29.441666666666706, -1.641666666666641 ], [ 29.4375, -1.641666666666641 ], [ 29.4375, -1.658333333333308 ], [ 29.441666666666706, -1.658333333333308 ], [ 29.441666666666706, -1.6625 ], [ 29.4375, -1.6625 ], [ 29.4375, -1.695833333333308 ], [ 29.445833333333372, -1.695833333333308 ], [ 29.445833333333372, -1.708333333333308 ], [ 29.45, -1.708333333333308 ], [ 29.45, -1.7125 ], [ 29.458333333333371, -1.7125 ], [ 29.458333333333371, -1.729166666666641 ], [ 29.454166666666705, -1.729166666666641 ], [ 29.454166666666705, -1.75 ], [ 29.458333333333371, -1.75 ], [ 29.458333333333371, -1.754166666666641 ], [ 29.4625, -1.754166666666641 ], [ 29.4625, -1.7625 ], [ 29.466666666666704, -1.7625 ], [ 29.466666666666704, -1.766666666666642 ], [ 29.4625, -1.766666666666642 ], [ 29.4625, -1.775 ], [ 29.454166666666705, -1.775 ], [ 29.454166666666705, -1.783333333333308 ], [ 29.45, -1.783333333333308 ], [ 29.45, -1.795833333333308 ], [ 29.454166666666705, -1.795833333333308 ], [ 29.454166666666705, -1.8 ], [ 29.458333333333371, -1.8 ], [ 29.458333333333371, -1.816666666666642 ], [ 29.4625, -1.816666666666642 ], [ 29.4625, -1.833333333333308 ], [ 29.466666666666704, -1.833333333333308 ], [ 29.466666666666704, -1.85 ], [ 29.4625, -1.85 ], [ 29.4625, -1.854166666666641 ], [ 29.458333333333371, -1.854166666666641 ], [ 29.458333333333371, -1.8625 ], [ 29.45, -1.8625 ], [ 29.45, -1.866666666666642 ], [ 29.454166666666705, -1.866666666666642 ], [ 29.454166666666705, -1.8875 ], [ 29.4375, -1.8875 ], [ 29.4375, -1.891666666666642 ], [ 29.433333333333369, -1.891666666666642 ], [ 29.433333333333369, -1.895833333333308 ], [ 29.425, -1.895833333333308 ], [ 29.425, -1.916666666666642 ], [ 29.429166666666703, -1.916666666666642 ], [ 29.429166666666703, -1.920833333333308 ], [ 29.433333333333369, -1.920833333333308 ], [ 29.433333333333369, -1.925 ], [ 29.4375, -1.925 ], [ 29.4375, -1.933333333333308 ], [ 29.441666666666706, -1.933333333333308 ], [ 29.441666666666706, -1.9375 ], [ 29.445833333333372, -1.9375 ], [ 29.445833333333372, -1.933333333333308 ], [ 29.466666666666704, -1.933333333333308 ], [ 29.466666666666704, -1.9375 ], [ 29.470833333333371, -1.9375 ], [ 29.470833333333371, -1.941666666666642 ], [ 29.475, -1.941666666666642 ], [ 29.475, -1.958333333333308 ], [ 29.479166666666703, -1.958333333333308 ], [ 29.479166666666703, -1.9625 ], [ 29.48333333333337, -1.9625 ], [ 29.48333333333337, -1.966666666666642 ], [ 29.4875, -1.966666666666642 ], [ 29.4875, -1.970833333333308 ], [ 29.495833333333373, -1.970833333333308 ], [ 29.495833333333373, -1.983333333333308 ], [ 29.5, -1.983333333333308 ], [ 29.5, -2.004166666666642 ], [ 29.495833333333373, -2.004166666666642 ], [ 29.495833333333373, -2.0125 ], [ 29.508333333333372, -2.0125 ], [ 29.508333333333372, -2.025 ], [ 29.504166666666706, -2.025 ], [ 29.504166666666706, -2.045833333333309 ], [ 29.5, -2.045833333333309 ], [ 29.5, -2.058333333333308 ], [ 29.504166666666706, -2.058333333333308 ], [ 29.504166666666706, -2.070833333333308 ], [ 29.5, -2.070833333333308 ], [ 29.5, -2.079166666666642 ], [ 29.495833333333373, -2.079166666666642 ], [ 29.495833333333373, -2.095833333333308 ], [ 29.491666666666703, -2.095833333333308 ], [ 29.491666666666703, -2.1 ], [ 29.4875, -2.1 ], [ 29.4875, -2.104166666666642 ], [ 29.48333333333337, -2.104166666666642 ], [ 29.48333333333337, -2.108333333333309 ], [ 29.479166666666703, -2.108333333333309 ], [ 29.479166666666703, -2.1125 ], [ 29.475, -2.1125 ], [ 29.475, -2.129166666666642 ], [ 29.470833333333371, -2.129166666666642 ], [ 29.470833333333371, -2.133333333333308 ], [ 29.45, -2.133333333333308 ], [ 29.45, -2.158333333333308 ], [ 29.454166666666705, -2.158333333333308 ], [ 29.454166666666705, -2.1625 ], [ 29.458333333333371, -2.1625 ], [ 29.458333333333371, -2.166666666666642 ], [ 29.454166666666705, -2.166666666666642 ], [ 29.454166666666705, -2.170833333333309 ], [ 29.429166666666703, -2.170833333333309 ], [ 29.429166666666703, -2.166666666666642 ], [ 29.416666666666703, -2.166666666666642 ], [ 29.416666666666703, -2.1625 ], [ 29.4125, -2.1625 ], [ 29.4125, -2.166666666666642 ], [ 29.404166666666704, -2.166666666666642 ], [ 29.404166666666704, -2.170833333333309 ], [ 29.4, -2.170833333333309 ], [ 29.4, -2.175 ], [ 29.395833333333371, -2.175 ], [ 29.395833333333371, -2.170833333333309 ], [ 29.391666666666705, -2.170833333333309 ], [ 29.391666666666705, -2.166666666666642 ], [ 29.3875, -2.166666666666642 ], [ 29.3875, -2.1625 ], [ 29.383333333333372, -2.1625 ], [ 29.383333333333372, -2.158333333333308 ], [ 29.379166666666706, -2.158333333333308 ], [ 29.379166666666706, -2.166666666666642 ], [ 29.375, -2.166666666666642 ], [ 29.375, -2.175 ], [ 29.370833333333369, -2.175 ], [ 29.370833333333369, -2.1875 ], [ 29.366666666666703, -2.1875 ], [ 29.366666666666703, -2.195833333333308 ], [ 29.3625, -2.195833333333308 ], [ 29.3625, -2.2 ], [ 29.35, -2.2 ], [ 29.35, -2.2125 ], [ 29.345833333333371, -2.2125 ], [ 29.345833333333371, -2.225 ], [ 29.35, -2.225 ], [ 29.35, -2.229166666666642 ], [ 29.354166666666703, -2.229166666666642 ], [ 29.354166666666703, -2.233333333333309 ], [ 29.35, -2.233333333333309 ], [ 29.35, -2.245833333333309 ], [ 29.354166666666703, -2.245833333333309 ], [ 29.354166666666703, -2.258333333333308 ], [ 29.35, -2.258333333333308 ], [ 29.35, -2.2625 ], [ 29.345833333333371, -2.2625 ], [ 29.345833333333371, -2.266666666666642 ], [ 29.341666666666704, -2.266666666666642 ], [ 29.341666666666704, -2.275 ], [ 29.3375, -2.275 ], [ 29.3375, -2.279166666666642 ], [ 29.333333333333371, -2.279166666666642 ], [ 29.333333333333371, -2.3 ], [ 29.3375, -2.3 ], [ 29.3375, -2.304166666666642 ], [ 29.341666666666704, -2.304166666666642 ], [ 29.341666666666704, -2.3125 ], [ 29.345833333333371, -2.3125 ], [ 29.345833333333371, -2.316666666666642 ], [ 29.35, -2.316666666666642 ], [ 29.35, -2.320833333333308 ], [ 29.354166666666703, -2.320833333333308 ], [ 29.354166666666703, -2.325 ], [ 29.3625, -2.325 ], [ 29.3625, -2.329166666666642 ], [ 29.366666666666703, -2.329166666666642 ], [ 29.366666666666703, -2.333333333333309 ], [ 29.370833333333369, -2.333333333333309 ], [ 29.370833333333369, -2.3375 ], [ 29.366666666666703, -2.3375 ], [ 29.366666666666703, -2.35 ], [ 29.35833333333337, -2.35 ], [ 29.35833333333337, -2.354166666666642 ], [ 29.354166666666703, -2.354166666666642 ], [ 29.354166666666703, -2.358333333333309 ], [ 29.35, -2.358333333333309 ], [ 29.35, -2.3625 ], [ 29.345833333333371, -2.3625 ], [ 29.345833333333371, -2.366666666666642 ], [ 29.341666666666704, -2.366666666666642 ], [ 29.341666666666704, -2.370833333333309 ], [ 29.3375, -2.370833333333309 ], [ 29.3375, -2.375 ], [ 29.333333333333371, -2.375 ], [ 29.333333333333371, -2.379166666666642 ], [ 29.329166666666705, -2.379166666666642 ], [ 29.329166666666705, -2.3875 ], [ 29.325, -2.3875 ], [ 29.325, -2.391666666666642 ], [ 29.316666666666706, -2.391666666666642 ], [ 29.316666666666706, -2.4 ], [ 29.320833333333372, -2.4 ], [ 29.320833333333372, -2.404166666666642 ], [ 29.329166666666705, -2.404166666666642 ], [ 29.329166666666705, -2.416666666666642 ], [ 29.325, -2.416666666666642 ], [ 29.325, -2.429166666666642 ], [ 29.320833333333372, -2.429166666666642 ], [ 29.320833333333372, -2.433333333333309 ], [ 29.316666666666706, -2.433333333333309 ], [ 29.316666666666706, -2.4375 ], [ 29.279166666666704, -2.4375 ], [ 29.279166666666704, -2.441666666666642 ], [ 29.275, -2.441666666666642 ], [ 29.275, -2.445833333333309 ], [ 29.279166666666704, -2.445833333333309 ], [ 29.279166666666704, -2.475 ], [ 29.283333333333371, -2.475 ], [ 29.283333333333371, -2.479166666666642 ], [ 29.2875, -2.479166666666642 ], [ 29.2875, -2.4875 ], [ 29.29583333333337, -2.4875 ], [ 29.29583333333337, -2.491666666666642 ], [ 29.304166666666703, -2.491666666666642 ], [ 29.304166666666703, -2.495833333333309 ], [ 29.3125, -2.495833333333309 ], [ 29.3125, -2.5 ], [ 29.316666666666706, -2.5 ], [ 29.316666666666706, -2.504166666666642 ], [ 29.320833333333372, -2.504166666666642 ], [ 29.320833333333372, -2.516666666666642 ], [ 29.325, -2.516666666666642 ], [ 29.325, -2.533333333333309 ], [ 29.329166666666705, -2.533333333333309 ], [ 29.329166666666705, -2.5375 ], [ 29.341666666666704, -2.5375 ], [ 29.341666666666704, -2.554166666666642 ], [ 29.345833333333371, -2.554166666666642 ], [ 29.345833333333371, -2.558333333333309 ], [ 29.35, -2.558333333333309 ], [ 29.35, -2.575 ], [ 29.345833333333371, -2.575 ], [ 29.345833333333371, -2.579166666666642 ], [ 29.341666666666704, -2.579166666666642 ], [ 29.341666666666704, -2.583333333333309 ], [ 29.3375, -2.583333333333309 ], [ 29.3375, -2.5875 ], [ 29.341666666666704, -2.5875 ], [ 29.341666666666704, -2.595833333333309 ], [ 29.345833333333371, -2.595833333333309 ], [ 29.345833333333371, -2.6 ], [ 29.35, -2.6 ], [ 29.35, -2.608333333333309 ], [ 29.354166666666703, -2.608333333333309 ], [ 29.354166666666703, -2.6125 ], [ 29.35833333333337, -2.6125 ], [ 29.35833333333337, -2.625 ], [ 29.354166666666703, -2.625 ], [ 29.354166666666703, -2.629166666666642 ], [ 29.35, -2.629166666666642 ], [ 29.35, -2.645833333333309 ], [ 29.354166666666703, -2.645833333333309 ], [ 29.354166666666703, -2.675 ], [ 29.35, -2.675 ], [ 29.35, -2.679166666666642 ], [ 29.345833333333371, -2.679166666666642 ], [ 29.345833333333371, -2.683333333333309 ], [ 29.35, -2.683333333333309 ], [ 29.35, -2.6875 ], [ 29.35833333333337, -2.6875 ], [ 29.35833333333337, -2.683333333333309 ], [ 29.370833333333369, -2.683333333333309 ], [ 29.370833333333369, -2.675 ], [ 29.379166666666706, -2.675 ], [ 29.379166666666706, -2.679166666666642 ], [ 29.3875, -2.679166666666642 ], [ 29.3875, -2.675 ], [ 29.395833333333371, -2.675 ], [ 29.395833333333371, -2.679166666666642 ], [ 29.408333333333371, -2.679166666666642 ], [ 29.408333333333371, -2.691666666666642 ], [ 29.404166666666704, -2.691666666666642 ], [ 29.404166666666704, -2.7125 ], [ 29.408333333333371, -2.7125 ], [ 29.408333333333371, -2.720833333333309 ], [ 29.42083333333337, -2.720833333333309 ], [ 29.42083333333337, -2.725 ], [ 29.425, -2.725 ], [ 29.425, -2.729166666666642 ], [ 29.429166666666703, -2.729166666666642 ], [ 29.429166666666703, -2.733333333333309 ], [ 29.433333333333369, -2.733333333333309 ], [ 29.433333333333369, -2.7375 ], [ 29.429166666666703, -2.7375 ], [ 29.429166666666703, -2.741666666666642 ], [ 29.425, -2.741666666666642 ], [ 29.425, -2.745833333333309 ], [ 29.42083333333337, -2.745833333333309 ], [ 29.42083333333337, -2.754166666666642 ], [ 29.416666666666703, -2.754166666666642 ], [ 29.416666666666703, -2.758333333333309 ], [ 29.433333333333369, -2.758333333333309 ], [ 29.433333333333369, -2.766666666666642 ], [ 29.429166666666703, -2.766666666666642 ], [ 29.429166666666703, -2.783333333333309 ], [ 29.433333333333369, -2.783333333333309 ], [ 29.433333333333369, -2.791666666666642 ], [ 29.4375, -2.791666666666642 ], [ 29.4375, -2.804166666666642 ], [ 29.441666666666706, -2.804166666666642 ], [ 29.441666666666706, -2.808333333333309 ], [ 29.454166666666705, -2.808333333333309 ], [ 29.454166666666705, -2.8125 ], [ 29.458333333333371, -2.8125 ], [ 29.458333333333371, -2.841666666666642 ], [ 29.4625, -2.841666666666642 ], [ 29.4625, -2.85 ], [ 29.466666666666704, -2.85 ], [ 29.466666666666704, -2.858333333333309 ], [ 29.470833333333371, -2.858333333333309 ], [ 29.470833333333371, -2.8625 ], [ 29.479166666666703, -2.8625 ], [ 29.479166666666703, -2.866666666666642 ], [ 29.48333333333337, -2.866666666666642 ], [ 29.48333333333337, -2.870833333333309 ], [ 29.491666666666703, -2.870833333333309 ], [ 29.491666666666703, -2.875 ], [ 29.495833333333373, -2.875 ], [ 29.495833333333373, -2.879166666666642 ], [ 29.5, -2.879166666666642 ], [ 29.5, -2.883333333333309 ], [ 29.504166666666706, -2.883333333333309 ], [ 29.504166666666706, -2.908333333333309 ], [ 29.5125, -2.908333333333309 ], [ 29.5125, -2.916666666666643 ], [ 29.520833333333371, -2.916666666666643 ], [ 29.520833333333371, -2.9375 ], [ 29.525, -2.9375 ], [ 29.525, -2.945833333333309 ], [ 29.520833333333371, -2.945833333333309 ], [ 29.520833333333371, -2.958333333333309 ], [ 29.525, -2.958333333333309 ], [ 29.525, -2.975 ], [ 29.529166666666704, -2.975 ], [ 29.529166666666704, -2.983333333333309 ], [ 29.533333333333371, -2.983333333333309 ], [ 29.533333333333371, -2.9875 ], [ 29.529166666666704, -2.9875 ], [ 29.529166666666704, -2.991666666666642 ], [ 29.533333333333371, -2.991666666666642 ], [ 29.533333333333371, -3.004166666666642 ], [ 29.5375, -3.004166666666642 ], [ 29.5375, -3.0125 ], [ 29.541666666666703, -3.0125 ], [ 29.541666666666703, -3.029166666666642 ], [ 29.54583333333337, -3.029166666666642 ], [ 29.54583333333337, -3.041666666666643 ], [ 29.55, -3.041666666666643 ], [ 29.55, -3.05 ], [ 29.554166666666703, -3.05 ], [ 29.554166666666703, -3.054166666666643 ], [ 29.558333333333373, -3.054166666666643 ], [ 29.558333333333373, -3.0625 ], [ 29.5625, -3.0625 ], [ 29.5625, -3.070833333333309 ], [ 29.566666666666706, -3.070833333333309 ], [ 29.566666666666706, -3.1 ], [ 29.5625, -3.1 ], [ 29.5625, -3.108333333333309 ], [ 29.554166666666703, -3.108333333333309 ], [ 29.554166666666703, -3.120833333333309 ], [ 29.55, -3.120833333333309 ], [ 29.55, -3.125 ], [ 29.54583333333337, -3.125 ], [ 29.54583333333337, -3.129166666666642 ], [ 29.5375, -3.129166666666642 ], [ 29.5375, -3.1375 ], [ 29.541666666666703, -3.1375 ], [ 29.541666666666703, -3.145833333333309 ], [ 29.55, -3.145833333333309 ], [ 29.55, -3.15 ], [ 29.554166666666703, -3.15 ], [ 29.554166666666703, -3.158333333333309 ], [ 29.5625, -3.158333333333309 ], [ 29.5625, -3.1625 ], [ 29.558333333333373, -3.1625 ], [ 29.558333333333373, -3.166666666666643 ], [ 29.554166666666703, -3.166666666666643 ], [ 29.554166666666703, -3.175 ], [ 29.55, -3.175 ], [ 29.55, -3.191666666666642 ], [ 29.54583333333337, -3.191666666666642 ], [ 29.54583333333337, -3.2 ], [ 29.541666666666703, -3.2 ], [ 29.541666666666703, -3.2125 ], [ 29.5375, -3.2125 ], [ 29.5375, -3.225 ], [ 29.533333333333371, -3.225 ], [ 29.533333333333371, -3.229166666666643 ], [ 29.529166666666704, -3.229166666666643 ], [ 29.529166666666704, -3.225 ], [ 29.525, -3.225 ], [ 29.525, -3.220833333333309 ], [ 29.516666666666705, -3.220833333333309 ], [ 29.516666666666705, -3.216666666666643 ], [ 29.508333333333372, -3.216666666666643 ], [ 29.508333333333372, -3.2125 ], [ 29.4875, -3.2125 ], [ 29.4875, -3.220833333333309 ], [ 29.48333333333337, -3.220833333333309 ], [ 29.48333333333337, -3.225 ], [ 29.475, -3.225 ], [ 29.475, -3.2375 ], [ 29.4625, -3.2375 ], [ 29.4625, -3.233333333333309 ], [ 29.445833333333372, -3.233333333333309 ], [ 29.445833333333372, -3.2375 ], [ 29.441666666666706, -3.2375 ], [ 29.441666666666706, -3.25 ], [ 29.4375, -3.25 ], [ 29.4375, -3.254166666666642 ], [ 29.425, -3.254166666666642 ], [ 29.425, -3.258333333333309 ], [ 29.42083333333337, -3.258333333333309 ], [ 29.42083333333337, -3.2625 ], [ 29.4125, -3.2625 ], [ 29.4125, -3.266666666666643 ], [ 29.395833333333371, -3.266666666666643 ], [ 29.395833333333371, -3.2625 ], [ 29.3875, -3.2625 ], [ 29.3875, -3.258333333333309 ], [ 29.3625, -3.258333333333309 ], [ 29.3625, -3.27083333333331 ], [ 29.35833333333337, -3.27083333333331 ], [ 29.35833333333337, -3.275 ], [ 29.354166666666703, -3.275 ], [ 29.354166666666703, -3.279166666666643 ], [ 29.3375, -3.279166666666643 ], [ 29.3375, -3.283333333333309 ], [ 29.333333333333371, -3.283333333333309 ], [ 29.333333333333371, -3.291666666666643 ], [ 29.329166666666705, -3.291666666666643 ], [ 29.329166666666705, -3.295833333333309 ], [ 29.316666666666706, -3.295833333333309 ], [ 29.316666666666706, -3.3 ], [ 29.3125, -3.3 ], [ 29.3125, -3.304166666666643 ], [ 29.308333333333369, -3.304166666666643 ], [ 29.308333333333369, -3.325 ], [ 29.3125, -3.325 ], [ 29.3125, -3.329166666666643 ], [ 29.304166666666703, -3.329166666666643 ], [ 29.304166666666703, -3.33333333333331 ], [ 29.283333333333371, -3.33333333333331 ], [ 29.283333333333371, -3.3375 ], [ 29.279166666666704, -3.3375 ], [ 29.279166666666704, -3.341666666666643 ], [ 29.266666666666705, -3.341666666666643 ], [ 29.266666666666705, -3.33333333333331 ], [ 29.2625, -3.33333333333331 ], [ 29.2625, -3.329166666666643 ], [ 29.258333333333372, -3.329166666666643 ], [ 29.258333333333372, -3.325 ], [ 29.254166666666706, -3.325 ], [ 29.254166666666706, -3.320833333333309 ], [ 29.245833333333369, -3.320833333333309 ], [ 29.245833333333369, -3.325 ], [ 29.241666666666703, -3.325 ], [ 29.241666666666703, -3.320833333333309 ], [ 29.2375, -3.320833333333309 ], [ 29.2375, -3.3125 ], [ 29.23333333333337, -3.3125 ], [ 29.23333333333337, -3.295833333333309 ], [ 29.216666666666704, -3.295833333333309 ], [ 29.216666666666704, -3.291666666666643 ], [ 29.2125, -3.291666666666643 ], [ 29.2125, -3.2875 ], [ 29.208333333333371, -3.2875 ], [ 29.208333333333371, -3.2625 ], [ 29.204166666666705, -3.2625 ], [ 29.204166666666705, -3.258333333333309 ], [ 29.2, -3.258333333333309 ], [ 29.2, -3.254166666666642 ], [ 29.191666666666706, -3.254166666666642 ], [ 29.191666666666706, -3.27083333333331 ], [ 29.183333333333369, -3.27083333333331 ], [ 29.183333333333369, -3.266666666666643 ], [ 29.175, -3.266666666666643 ], [ 29.175, -3.2625 ], [ 29.145833333333371, -3.2625 ], [ 29.145833333333371, -3.266666666666643 ], [ 29.1375, -3.266666666666643 ], [ 29.1375, -3.27083333333331 ], [ 29.129166666666706, -3.27083333333331 ], [ 29.129166666666706, -3.275 ], [ 29.125, -3.275 ], [ 29.125, -3.279166666666643 ], [ 29.120833333333369, -3.279166666666643 ], [ 29.120833333333369, -3.283333333333309 ], [ 29.1125, -3.283333333333309 ], [ 29.1125, -3.279166666666643 ], [ 29.091666666666704, -3.279166666666643 ], [ 29.091666666666704, -3.283333333333309 ], [ 29.079166666666705, -3.283333333333309 ], [ 29.079166666666705, -3.291666666666643 ], [ 29.075, -3.291666666666643 ], [ 29.075, -3.295833333333309 ], [ 29.070833333333372, -3.295833333333309 ], [ 29.070833333333372, -3.3 ], [ 29.0625, -3.3 ], [ 29.0625, -3.304166666666643 ], [ 29.05, -3.304166666666643 ], [ 29.05, -3.30833333333331 ], [ 29.04583333333337, -3.30833333333331 ], [ 29.04583333333337, -3.3125 ], [ 29.0375, -3.3125 ], [ 29.0375, -3.30833333333331 ], [ 29.025, -3.30833333333331 ], [ 29.025, -3.316666666666643 ], [ 29.004166666666706, -3.316666666666643 ], [ 29.004166666666706, -3.320833333333309 ], [ 29.0, -3.320833333333309 ], [ 29.0, -3.325 ], [ 28.98333333333337, -3.325 ], [ 28.98333333333337, -3.320833333333309 ], [ 28.975, -3.320833333333309 ], [ 28.975, -3.316666666666643 ], [ 28.966666666666704, -3.316666666666643 ], [ 28.966666666666704, -3.3125 ], [ 28.9625, -3.3125 ], [ 28.9625, -3.304166666666643 ], [ 28.966666666666704, -3.304166666666643 ], [ 28.966666666666704, -3.3 ], [ 28.970833333333371, -3.3 ], [ 28.970833333333371, -3.295833333333309 ], [ 28.975, -3.295833333333309 ], [ 28.975, -3.291666666666643 ], [ 28.979166666666703, -3.291666666666643 ], [ 28.979166666666703, -3.27083333333331 ], [ 28.975, -3.27083333333331 ], [ 28.975, -3.266666666666643 ], [ 28.970833333333371, -3.266666666666643 ], [ 28.970833333333371, -3.258333333333309 ], [ 28.975, -3.258333333333309 ], [ 28.975, -3.254166666666642 ], [ 28.970833333333371, -3.254166666666642 ], [ 28.970833333333371, -3.233333333333309 ], [ 28.966666666666704, -3.233333333333309 ], [ 28.966666666666704, -3.229166666666643 ], [ 28.9625, -3.229166666666643 ], [ 28.9625, -3.225 ], [ 28.954166666666705, -3.225 ], [ 28.954166666666705, -3.20833333333331 ], [ 28.95, -3.20833333333331 ], [ 28.95, -3.204166666666643 ], [ 28.945833333333372, -3.204166666666643 ], [ 28.945833333333372, -3.195833333333309 ], [ 28.9375, -3.195833333333309 ], [ 28.9375, -3.191666666666642 ], [ 28.933333333333369, -3.191666666666642 ], [ 28.933333333333369, -3.183333333333309 ], [ 28.9375, -3.183333333333309 ], [ 28.9375, -3.166666666666643 ], [ 28.933333333333369, -3.166666666666643 ], [ 28.933333333333369, -3.1625 ], [ 28.929166666666703, -3.1625 ], [ 28.929166666666703, -3.15 ], [ 28.933333333333369, -3.15 ], [ 28.933333333333369, -3.141666666666643 ], [ 28.929166666666703, -3.141666666666643 ], [ 28.929166666666703, -3.104166666666643 ], [ 28.925, -3.104166666666643 ], [ 28.925, -3.091666666666642 ], [ 28.92083333333337, -3.091666666666642 ], [ 28.92083333333337, -3.083333333333309 ], [ 28.916666666666703, -3.083333333333309 ], [ 28.916666666666703, -3.079166666666643 ], [ 28.908333333333371, -3.079166666666643 ], [ 28.908333333333371, -3.070833333333309 ], [ 28.9125, -3.070833333333309 ], [ 28.9125, -3.066666666666642 ], [ 28.916666666666703, -3.066666666666642 ], [ 28.916666666666703, -3.058333333333309 ], [ 28.9125, -3.058333333333309 ], [ 28.9125, -3.05 ], [ 28.908333333333371, -3.05 ], [ 28.908333333333371, -3.045833333333309 ], [ 28.904166666666704, -3.045833333333309 ], [ 28.904166666666704, -3.05 ], [ 28.9, -3.05 ], [ 28.9, -3.045833333333309 ], [ 28.891666666666705, -3.045833333333309 ], [ 28.891666666666705, -3.0375 ], [ 28.8875, -3.0375 ], [ 28.8875, -3.029166666666642 ], [ 28.883333333333372, -3.029166666666642 ], [ 28.883333333333372, -3.0125 ], [ 28.879166666666702, -3.0125 ], [ 28.879166666666702, -3.0 ], [ 28.870833333333369, -3.0 ], [ 28.870833333333369, -3.008333333333309 ], [ 28.845833333333371, -3.008333333333309 ], [ 28.845833333333371, -3.0125 ], [ 28.8375, -3.0125 ], [ 28.8375, -3.016666666666643 ], [ 28.833333333333371, -3.016666666666643 ], [ 28.833333333333371, -3.020833333333309 ], [ 28.829166666666705, -3.020833333333309 ], [ 28.829166666666705, -3.016666666666643 ], [ 28.825, -3.016666666666643 ], [ 28.825, -3.008333333333309 ], [ 28.829166666666705, -3.008333333333309 ], [ 28.829166666666705, -2.995833333333309 ], [ 28.833333333333371, -2.995833333333309 ], [ 28.833333333333371, -2.991666666666642 ], [ 28.829166666666705, -2.991666666666642 ], [ 28.829166666666705, -2.975 ], [ 28.825, -2.975 ], [ 28.825, -2.970833333333309 ], [ 28.816666666666702, -2.970833333333309 ], [ 28.816666666666702, -2.966666666666642 ], [ 28.8125, -2.966666666666642 ], [ 28.8125, -2.970833333333309 ], [ 28.808333333333369, -2.970833333333309 ], [ 28.808333333333369, -2.966666666666642 ], [ 28.8, -2.966666666666642 ], [ 28.8, -2.9625 ], [ 28.79583333333337, -2.9625 ], [ 28.79583333333337, -2.958333333333309 ], [ 28.791666666666703, -2.958333333333309 ], [ 28.791666666666703, -2.954166666666643 ], [ 28.7875, -2.954166666666643 ], [ 28.7875, -2.95 ], [ 28.783333333333371, -2.95 ], [ 28.783333333333371, -2.9375 ], [ 28.7875, -2.9375 ], [ 28.7875, -2.929166666666642 ], [ 28.791666666666703, -2.929166666666642 ], [ 28.791666666666703, -2.925 ], [ 28.8, -2.925 ], [ 28.8, -2.920833333333309 ], [ 28.804166666666703, -2.920833333333309 ], [ 28.804166666666703, -2.916666666666643 ], [ 28.8, -2.916666666666643 ], [ 28.8, -2.895833333333309 ], [ 28.804166666666703, -2.895833333333309 ], [ 28.804166666666703, -2.883333333333309 ], [ 28.8, -2.883333333333309 ], [ 28.8, -2.870833333333309 ], [ 28.804166666666703, -2.870833333333309 ], [ 28.804166666666703, -2.858333333333309 ], [ 28.808333333333369, -2.858333333333309 ], [ 28.808333333333369, -2.825 ], [ 28.791666666666703, -2.825 ], [ 28.791666666666703, -2.816666666666642 ], [ 28.783333333333371, -2.816666666666642 ], [ 28.783333333333371, -2.804166666666642 ], [ 28.775, -2.804166666666642 ], [ 28.775, -2.791666666666642 ], [ 28.770833333333371, -2.791666666666642 ], [ 28.770833333333371, -2.779166666666642 ], [ 28.779166666666704, -2.779166666666642 ], [ 28.779166666666704, -2.775 ], [ 28.783333333333371, -2.775 ], [ 28.783333333333371, -2.770833333333309 ], [ 28.7875, -2.770833333333309 ], [ 28.7875, -2.754166666666642 ], [ 28.791666666666703, -2.754166666666642 ], [ 28.791666666666703, -2.75 ], [ 28.79583333333337, -2.75 ], [ 28.79583333333337, -2.741666666666642 ], [ 28.8, -2.741666666666642 ], [ 28.8, -2.704166666666642 ], [ 28.79583333333337, -2.704166666666642 ], [ 28.79583333333337, -2.670833333333309 ], [ 28.7875, -2.670833333333309 ], [ 28.7875, -2.658333333333309 ], [ 28.783333333333371, -2.658333333333309 ], [ 28.783333333333371, -2.654166666666642 ], [ 28.779166666666704, -2.654166666666642 ], [ 28.779166666666704, -2.629166666666642 ], [ 28.783333333333371, -2.629166666666642 ], [ 28.783333333333371, -2.625 ], [ 28.79583333333337, -2.625 ], [ 28.79583333333337, -2.620833333333309 ], [ 28.8, -2.620833333333309 ], [ 28.8, -2.6125 ], [ 28.79583333333337, -2.6125 ], [ 28.79583333333337, -2.6 ], [ 28.8, -2.6 ], [ 28.8, -2.566666666666642 ], [ 28.804166666666703, -2.566666666666642 ], [ 28.804166666666703, -2.5625 ], [ 28.808333333333369, -2.5625 ], [ 28.808333333333369, -2.558333333333309 ], [ 28.8125, -2.558333333333309 ], [ 28.8125, -2.554166666666642 ], [ 28.808333333333369, -2.554166666666642 ], [ 28.808333333333369, -2.545833333333309 ], [ 28.8, -2.545833333333309 ], [ 28.8, -2.5375 ], [ 28.79583333333337, -2.5375 ], [ 28.79583333333337, -2.533333333333309 ], [ 28.7875, -2.533333333333309 ], [ 28.7875, -2.529166666666642 ], [ 28.775, -2.529166666666642 ], [ 28.775, -2.533333333333309 ], [ 28.758333333333372, -2.533333333333309 ], [ 28.758333333333372, -2.516666666666642 ], [ 28.754166666666702, -2.516666666666642 ], [ 28.754166666666702, -2.504166666666642 ], [ 28.75, -2.504166666666642 ], [ 28.75, -2.495833333333309 ], [ 28.741666666666703, -2.495833333333309 ], [ 28.741666666666703, -2.491666666666642 ], [ 28.7375, -2.491666666666642 ], [ 28.7375, -2.4875 ], [ 28.725, -2.4875 ], [ 28.725, -2.483333333333309 ], [ 28.716666666666704, -2.483333333333309 ], [ 28.716666666666704, -2.479166666666642 ], [ 28.7125, -2.479166666666642 ], [ 28.7125, -2.483333333333309 ], [ 28.704166666666705, -2.483333333333309 ], [ 28.704166666666705, -2.4875 ], [ 28.695833333333372, -2.4875 ], [ 28.695833333333372, -2.491666666666642 ], [ 28.679166666666703, -2.491666666666642 ], [ 28.679166666666703, -2.495833333333309 ], [ 28.675, -2.495833333333309 ], [ 28.675, -2.5 ], [ 28.67083333333337, -2.5 ], [ 28.67083333333337, -2.504166666666642 ], [ 28.6625, -2.504166666666642 ], [ 28.6625, -2.508333333333309 ], [ 28.658333333333371, -2.508333333333309 ], [ 28.658333333333371, -2.516666666666642 ], [ 28.654166666666704, -2.516666666666642 ], [ 28.654166666666704, -2.520833333333309 ], [ 28.641666666666705, -2.520833333333309 ], [ 28.641666666666705, -2.5125 ], [ 28.6375, -2.5125 ], [ 28.6375, -2.508333333333309 ], [ 28.633333333333372, -2.508333333333309 ], [ 28.633333333333372, -2.504166666666642 ], [ 28.625, -2.504166666666642 ], [ 28.625, -2.5 ], [ 28.633333333333372, -2.5 ], [ 28.633333333333372, -2.495833333333309 ], [ 28.6375, -2.495833333333309 ], [ 28.6375, -2.491666666666642 ], [ 28.641666666666705, -2.491666666666642 ], [ 28.641666666666705, -2.4875 ], [ 28.65, -2.4875 ], [ 28.65, -2.483333333333309 ], [ 28.654166666666704, -2.483333333333309 ], [ 28.654166666666704, -2.466666666666642 ], [ 28.658333333333371, -2.466666666666642 ], [ 28.658333333333371, -2.458333333333309 ], [ 28.6625, -2.458333333333309 ], [ 28.6625, -2.445833333333309 ], [ 28.666666666666703, -2.445833333333309 ], [ 28.666666666666703, -2.4375 ], [ 28.67083333333337, -2.4375 ], [ 28.67083333333337, -2.429166666666642 ], [ 28.675, -2.429166666666642 ], [ 28.675, -2.425 ], [ 28.67083333333337, -2.425 ], [ 28.67083333333337, -2.416666666666642 ], [ 28.675, -2.416666666666642 ], [ 28.675, -2.4125 ], [ 28.679166666666703, -2.4125 ], [ 28.679166666666703, -2.395833333333309 ], [ 28.683333333333369, -2.395833333333309 ], [ 28.683333333333369, -2.379166666666642 ], [ 28.6875, -2.379166666666642 ], [ 28.6875, -2.370833333333309 ], [ 28.704166666666705, -2.370833333333309 ], [ 28.704166666666705, -2.366666666666642 ], [ 28.708333333333371, -2.366666666666642 ], [ 28.708333333333371, -2.358333333333309 ], [ 28.7125, -2.358333333333309 ], [ 28.7125, -2.354166666666642 ], [ 28.716666666666704, -2.354166666666642 ], [ 28.716666666666704, -2.329166666666642 ], [ 28.720833333333371, -2.329166666666642 ], [ 28.720833333333371, -2.316666666666642 ], [ 28.716666666666704, -2.316666666666642 ], [ 28.716666666666704, -2.3125 ], [ 28.720833333333371, -2.3125 ], [ 28.720833333333371, -2.308333333333309 ], [ 28.729166666666703, -2.308333333333309 ], [ 28.729166666666703, -2.3125 ], [ 28.7375, -2.3125 ], [ 28.7375, -2.308333333333309 ], [ 28.73333333333337, -2.308333333333309 ], [ 28.73333333333337, -2.295833333333309 ], [ 28.729166666666703, -2.295833333333309 ], [ 28.729166666666703, -2.283333333333308 ], [ 28.73333333333337, -2.283333333333308 ], [ 28.73333333333337, -2.275 ], [ 28.741666666666703, -2.275 ], [ 28.741666666666703, -2.266666666666642 ], [ 28.745833333333369, -2.266666666666642 ], [ 28.745833333333369, -2.2625 ], [ 28.741666666666703, -2.2625 ], [ 28.741666666666703, -2.241666666666642 ], [ 28.7375, -2.241666666666642 ], [ 28.7375, -2.2375 ], [ 28.7125, -2.2375 ], [ 28.7125, -2.233333333333309 ], [ 28.708333333333371, -2.233333333333309 ], [ 28.708333333333371, -2.225 ], [ 28.7125, -2.225 ], [ 28.7125, -2.216666666666642 ], [ 28.716666666666704, -2.216666666666642 ], [ 28.716666666666704, -2.208333333333309 ], [ 28.720833333333371, -2.208333333333309 ], [ 28.720833333333371, -2.158333333333308 ], [ 28.725, -2.158333333333308 ], [ 28.725, -2.154166666666642 ], [ 28.73333333333337, -2.154166666666642 ], [ 28.73333333333337, -2.15 ], [ 28.741666666666703, -2.15 ], [ 28.741666666666703, -2.145833333333309 ], [ 28.745833333333369, -2.145833333333309 ], [ 28.745833333333369, -2.141666666666642 ], [ 28.754166666666702, -2.141666666666642 ], [ 28.754166666666702, -2.1375 ], [ 28.758333333333372, -2.1375 ], [ 28.758333333333372, -2.133333333333308 ], [ 28.7625, -2.133333333333308 ], [ 28.7625, -2.129166666666642 ], [ 28.779166666666704, -2.129166666666642 ], [ 28.779166666666704, -2.125 ], [ 28.783333333333371, -2.125 ], [ 28.783333333333371, -2.120833333333308 ], [ 28.791666666666703, -2.120833333333308 ], [ 28.791666666666703, -2.1125 ], [ 28.79583333333337, -2.1125 ], [ 28.79583333333337, -2.091666666666642 ], [ 28.8, -2.091666666666642 ], [ 28.8, -2.083333333333308 ], [ 28.816666666666702, -2.083333333333308 ], [ 28.816666666666702, -2.079166666666642 ], [ 28.820833333333372, -2.079166666666642 ], [ 28.820833333333372, -2.070833333333308 ], [ 28.825, -2.070833333333308 ], [ 28.825, -2.058333333333308 ], [ 28.829166666666705, -2.058333333333308 ], [ 28.829166666666705, -2.054166666666642 ], [ 28.833333333333371, -2.054166666666642 ], [ 28.833333333333371, -2.045833333333309 ], [ 28.8375, -2.045833333333309 ], [ 28.8375, -2.0375 ], [ 28.841666666666704, -2.0375 ], [ 28.841666666666704, -2.025 ], [ 28.845833333333371, -2.025 ], [ 28.845833333333371, -2.020833333333308 ], [ 28.85, -2.020833333333308 ], [ 28.85, -2.016666666666642 ], [ 28.854166666666703, -2.016666666666642 ], [ 28.854166666666703, -2.008333333333308 ], [ 28.8625, -2.008333333333308 ], [ 28.8625, -2.004166666666642 ], [ 28.866666666666703, -2.004166666666642 ], [ 28.866666666666703, -2.0 ], [ 28.870833333333369, -2.0 ], [ 28.870833333333369, -1.995833333333308 ], [ 28.875, -1.995833333333308 ], [ 28.875, -1.983333333333308 ], [ 28.85833333333337, -1.983333333333308 ], [ 28.85833333333337, -1.979166666666642 ], [ 28.85, -1.979166666666642 ], [ 28.85, -1.95 ], [ 28.854166666666703, -1.95 ], [ 28.854166666666703, -1.941666666666642 ], [ 28.8625, -1.941666666666642 ], [ 28.8625, -1.9375 ], [ 28.875, -1.9375 ], [ 28.875, -1.945833333333308 ], [ 28.879166666666702, -1.945833333333308 ], [ 28.879166666666702, -1.941666666666642 ], [ 28.883333333333372, -1.941666666666642 ], [ 28.883333333333372, -1.925 ], [ 28.8875, -1.925 ], [ 28.8875, -1.916666666666642 ], [ 28.891666666666705, -1.916666666666642 ], [ 28.891666666666705, -1.908333333333308 ], [ 28.895833333333371, -1.908333333333308 ], [ 28.895833333333371, -1.904166666666641 ], [ 28.9, -1.904166666666641 ], [ 28.9, -1.9 ], [ 28.904166666666704, -1.9 ], [ 28.904166666666704, -1.891666666666642 ], [ 28.908333333333371, -1.891666666666642 ], [ 28.908333333333371, -1.883333333333308 ], [ 28.9125, -1.883333333333308 ], [ 28.9125, -1.858333333333308 ], [ 28.916666666666703, -1.858333333333308 ], [ 28.916666666666703, -1.85 ], [ 28.92083333333337, -1.85 ], [ 28.92083333333337, -1.833333333333308 ], [ 28.925, -1.833333333333308 ], [ 28.925, -1.8125 ], [ 28.929166666666703, -1.8125 ], [ 28.929166666666703, -1.779166666666641 ], [ 28.9375, -1.779166666666641 ], [ 28.9375, -1.775 ], [ 28.933333333333369, -1.775 ], [ 28.933333333333369, -1.766666666666642 ], [ 28.929166666666703, -1.766666666666642 ], [ 28.929166666666703, -1.7625 ], [ 28.925, -1.7625 ], [ 28.925, -1.754166666666641 ], [ 28.92083333333337, -1.754166666666641 ], [ 28.92083333333337, -1.75 ], [ 28.916666666666703, -1.75 ], [ 28.916666666666703, -1.745833333333308 ], [ 28.9125, -1.745833333333308 ], [ 28.9125, -1.741666666666641 ], [ 28.916666666666703, -1.741666666666641 ], [ 28.916666666666703, -1.725 ], [ 28.92083333333337, -1.725 ], [ 28.92083333333337, -1.720833333333308 ], [ 28.925, -1.720833333333308 ], [ 28.925, -1.716666666666641 ], [ 28.929166666666703, -1.716666666666641 ], [ 28.929166666666703, -1.7125 ], [ 28.933333333333369, -1.7125 ], [ 28.933333333333369, -1.708333333333308 ], [ 28.9375, -1.708333333333308 ], [ 28.9375, -1.7 ], [ 28.941666666666706, -1.7 ], [ 28.941666666666706, -1.691666666666641 ], [ 28.945833333333372, -1.691666666666641 ], [ 28.945833333333372, -1.6875 ], [ 28.941666666666706, -1.6875 ], [ 28.941666666666706, -1.683333333333308 ], [ 28.9375, -1.683333333333308 ], [ 28.9375, -1.670833333333308 ], [ 28.941666666666706, -1.670833333333308 ], [ 28.941666666666706, -1.65 ], [ 28.945833333333372, -1.65 ], [ 28.945833333333372, -1.6375 ], [ 28.954166666666705, -1.6375 ], [ 28.954166666666705, -1.633333333333308 ], [ 28.958333333333371, -1.633333333333308 ], [ 28.958333333333371, -1.629166666666641 ], [ 28.9625, -1.629166666666641 ], [ 28.9625, -1.620833333333308 ], [ 28.966666666666704, -1.620833333333308 ], [ 28.966666666666704, -1.616666666666641 ], [ 28.970833333333371, -1.616666666666641 ], [ 28.970833333333371, -1.608333333333308 ], [ 28.979166666666703, -1.608333333333308 ], [ 28.979166666666703, -1.604166666666641 ], [ 28.975, -1.604166666666641 ], [ 28.975, -1.5875 ], [ 28.979166666666703, -1.5875 ], [ 28.979166666666703, -1.583333333333308 ], [ 28.98333333333337, -1.583333333333308 ], [ 28.98333333333337, -1.579166666666641 ], [ 28.9875, -1.579166666666641 ], [ 28.9875, -1.558333333333308 ], [ 28.991666666666703, -1.558333333333308 ], [ 28.991666666666703, -1.55 ], [ 28.9875, -1.55 ], [ 28.9875, -1.545833333333308 ], [ 28.98333333333337, -1.545833333333308 ], [ 28.98333333333337, -1.525 ], [ 28.979166666666703, -1.525 ], [ 28.979166666666703, -1.516666666666641 ], [ 28.98333333333337, -1.516666666666641 ], [ 28.98333333333337, -1.5125 ], [ 28.995833333333369, -1.5125 ], [ 28.995833333333369, -1.4875 ], [ 29.0, -1.4875 ], [ 29.0, -1.470833333333308 ], [ 29.0125, -1.470833333333308 ], [ 29.0125, -1.458333333333308 ], [ 29.016666666666705, -1.458333333333308 ], [ 29.016666666666705, -1.45 ], [ 29.025, -1.45 ], [ 29.025, -1.445833333333308 ], [ 29.029166666666704, -1.445833333333308 ], [ 29.029166666666704, -1.4375 ], [ 29.041666666666703, -1.4375 ], [ 29.041666666666703, -1.433333333333308 ], [ 29.04583333333337, -1.433333333333308 ], [ 29.04583333333337, -1.4375 ], [ 29.058333333333369, -1.4375 ], [ 29.058333333333369, -1.433333333333308 ], [ 29.083333333333371, -1.433333333333308 ], [ 29.083333333333371, -1.429166666666641 ], [ 29.095833333333371, -1.429166666666641 ], [ 29.095833333333371, -1.420833333333308 ], [ 29.091666666666704, -1.420833333333308 ], [ 29.091666666666704, -1.416666666666641 ], [ 29.095833333333371, -1.416666666666641 ], [ 29.095833333333371, -1.4125 ], [ 29.1, -1.4125 ], [ 29.1, -1.408333333333308 ], [ 29.104166666666703, -1.408333333333308 ], [ 29.104166666666703, -1.4 ], [ 29.120833333333369, -1.4 ], [ 29.120833333333369, -1.395833333333308 ] ] ] } },
{ "type": "Feature", "properties": { "river": "Mulembwe", "display_name": "Mulembwe Basin", "area_km2": 933.68, "confidence_level": "high", "search_label": "Mulembwe", "feature_type": "basin", "draw_order": 2 }, "geometry": { "type": "Polygon", "coordinates": [ [ [ 29.579166666666705, -3.554166666666643 ], [ 29.591666666666704, -3.554166666666643 ], [ 29.591666666666704, -3.5625 ], [ 29.5875, -3.5625 ], [ 29.5875, -3.5875 ], [ 29.591666666666704, -3.5875 ], [ 29.591666666666704, -3.604166666666643 ], [ 29.595833333333371, -3.604166666666643 ], [ 29.595833333333371, -3.6125 ], [ 29.591666666666704, -3.6125 ], [ 29.591666666666704, -3.62083333333331 ], [ 29.595833333333371, -3.62083333333331 ], [ 29.595833333333371, -3.654166666666643 ], [ 29.6125, -3.654166666666643 ], [ 29.6125, -3.65 ], [ 29.625, -3.65 ], [ 29.625, -3.654166666666643 ], [ 29.6375, -3.654166666666643 ], [ 29.6375, -3.65833333333331 ], [ 29.645833333333371, -3.65833333333331 ], [ 29.645833333333371, -3.67083333333331 ], [ 29.65, -3.67083333333331 ], [ 29.65, -3.675 ], [ 29.645833333333371, -3.675 ], [ 29.645833333333371, -3.691666666666643 ], [ 29.641666666666705, -3.691666666666643 ], [ 29.641666666666705, -3.7 ], [ 29.6375, -3.7 ], [ 29.6375, -3.7125 ], [ 29.633333333333372, -3.7125 ], [ 29.633333333333372, -3.725 ], [ 29.6375, -3.725 ], [ 29.6375, -3.729166666666643 ], [ 29.641666666666705, -3.729166666666643 ], [ 29.641666666666705, -3.73333333333331 ], [ 29.654166666666704, -3.73333333333331 ], [ 29.654166666666704, -3.7375 ], [ 29.6625, -3.7375 ], [ 29.6625, -3.754166666666643 ], [ 29.666666666666703, -3.754166666666643 ], [ 29.666666666666703, -3.75833333333331 ], [ 29.67083333333337, -3.75833333333331 ], [ 29.67083333333337, -3.766666666666643 ], [ 29.675, -3.766666666666643 ], [ 29.675, -3.7625 ], [ 29.679166666666703, -3.7625 ], [ 29.679166666666703, -3.766666666666643 ], [ 29.691666666666706, -3.766666666666643 ], [ 29.691666666666706, -3.775 ], [ 29.7125, -3.775 ], [ 29.7125, -3.779166666666643 ], [ 29.720833333333371, -3.779166666666643 ], [ 29.720833333333371, -3.791666666666643 ], [ 29.725, -3.791666666666643 ], [ 29.725, -3.79583333333331 ], [ 29.729166666666703, -3.79583333333331 ], [ 29.729166666666703, -3.804166666666643 ], [ 29.720833333333371, -3.804166666666643 ], [ 29.720833333333371, -3.80833333333331 ], [ 29.7125, -3.80833333333331 ], [ 29.7125, -3.8125 ], [ 29.708333333333371, -3.8125 ], [ 29.708333333333371, -3.829166666666643 ], [ 29.704166666666705, -3.829166666666643 ], [ 29.704166666666705, -3.841666666666643 ], [ 29.7, -3.841666666666643 ], [ 29.7, -3.854166666666643 ], [ 29.695833333333372, -3.854166666666643 ], [ 29.695833333333372, -3.866666666666643 ], [ 29.704166666666705, -3.866666666666643 ], [ 29.704166666666705, -3.87083333333331 ], [ 29.708333333333371, -3.87083333333331 ], [ 29.708333333333371, -3.88333333333331 ], [ 29.720833333333371, -3.88333333333331 ], [ 29.720833333333371, -3.891666666666643 ], [ 29.73333333333337, -3.891666666666643 ], [ 29.73333333333337, -3.8875 ], [ 29.754166666666706, -3.8875 ], [ 29.754166666666706, -3.88333333333331 ], [ 29.758333333333372, -3.88333333333331 ], [ 29.758333333333372, -3.879166666666643 ], [ 29.7625, -3.879166666666643 ], [ 29.7625, -3.87083333333331 ], [ 29.766666666666705, -3.87083333333331 ], [ 29.766666666666705, -3.866666666666643 ], [ 29.770833333333371, -3.866666666666643 ], [ 29.770833333333371, -3.85833333333331 ], [ 29.79583333333337, -3.85833333333331 ], [ 29.79583333333337, -3.854166666666643 ], [ 29.808333333333373, -3.854166666666643 ], [ 29.808333333333373, -3.85833333333331 ], [ 29.8125, -3.85833333333331 ], [ 29.8125, -3.866666666666643 ], [ 29.816666666666706, -3.866666666666643 ], [ 29.816666666666706, -3.875 ], [ 29.820833333333372, -3.875 ], [ 29.820833333333372, -3.879166666666643 ], [ 29.829166666666705, -3.879166666666643 ], [ 29.829166666666705, -3.8875 ], [ 29.833333333333371, -3.8875 ], [ 29.833333333333371, -3.9125 ], [ 29.8375, -3.9125 ], [ 29.8375, -3.90833333333331 ], [ 29.845833333333371, -3.90833333333331 ], [ 29.845833333333371, -3.92083333333331 ], [ 29.854166666666703, -3.92083333333331 ], [ 29.854166666666703, -3.941666666666643 ], [ 29.85, -3.941666666666643 ], [ 29.85, -3.94583333333331 ], [ 29.845833333333371, -3.94583333333331 ], [ 29.845833333333371, -3.95833333333331 ], [ 29.841666666666704, -3.95833333333331 ], [ 29.841666666666704, -3.975 ], [ 29.8375, -3.975 ], [ 29.8375, -3.991666666666643 ], [ 29.845833333333371, -3.991666666666643 ], [ 29.845833333333371, -3.99583333333331 ], [ 29.841666666666704, -3.99583333333331 ], [ 29.841666666666704, -4.004166666666643 ], [ 29.8375, -4.004166666666643 ], [ 29.8375, -4.0125 ], [ 29.829166666666705, -4.0125 ], [ 29.829166666666705, -4.016666666666644 ], [ 29.820833333333372, -4.016666666666644 ], [ 29.820833333333372, -3.9875 ], [ 29.816666666666706, -3.9875 ], [ 29.816666666666706, -3.98333333333331 ], [ 29.808333333333373, -3.98333333333331 ], [ 29.808333333333373, -3.9875 ], [ 29.79583333333337, -3.9875 ], [ 29.79583333333337, -3.98333333333331 ], [ 29.791666666666703, -3.98333333333331 ], [ 29.791666666666703, -4.0 ], [ 29.7875, -4.0 ], [ 29.7875, -4.004166666666643 ], [ 29.783333333333371, -4.004166666666643 ], [ 29.783333333333371, -4.00833333333331 ], [ 29.766666666666705, -4.00833333333331 ], [ 29.766666666666705, -4.004166666666643 ], [ 29.754166666666706, -4.004166666666643 ], [ 29.754166666666706, -4.0 ], [ 29.75, -4.0 ], [ 29.75, -3.99583333333331 ], [ 29.73333333333337, -3.99583333333331 ], [ 29.73333333333337, -3.979166666666643 ], [ 29.729166666666703, -3.979166666666643 ], [ 29.729166666666703, -3.98333333333331 ], [ 29.725, -3.98333333333331 ], [ 29.725, -3.9875 ], [ 29.720833333333371, -3.9875 ], [ 29.720833333333371, -3.99583333333331 ], [ 29.716666666666704, -3.99583333333331 ], [ 29.716666666666704, -4.0 ], [ 29.7125, -4.0 ], [ 29.7125, -4.004166666666643 ], [ 29.691666666666706, -4.004166666666643 ], [ 29.691666666666706, -3.99583333333331 ], [ 29.683333333333373, -3.99583333333331 ], [ 29.683333333333373, -4.00833333333331 ], [ 29.675, -4.00833333333331 ], [ 29.675, -4.004166666666643 ], [ 29.666666666666703, -4.004166666666643 ], [ 29.666666666666703, -4.00833333333331 ], [ 29.6625, -4.00833333333331 ], [ 29.6625, -4.0125 ], [ 29.645833333333371, -4.0125 ], [ 29.645833333333371, -4.00833333333331 ], [ 29.65, -4.00833333333331 ], [ 29.65, -4.004166666666643 ], [ 29.6375, -4.004166666666643 ], [ 29.6375, -4.0 ], [ 29.625, -4.0 ], [ 29.625, -3.99583333333331 ], [ 29.616666666666703, -3.99583333333331 ], [ 29.616666666666703, -3.991666666666643 ], [ 29.6125, -3.991666666666643 ], [ 29.6125, -3.98333333333331 ], [ 29.60833333333337, -3.98333333333331 ], [ 29.60833333333337, -3.979166666666643 ], [ 29.595833333333371, -3.979166666666643 ], [ 29.595833333333371, -3.975 ], [ 29.583333333333371, -3.975 ], [ 29.583333333333371, -3.979166666666643 ], [ 29.566666666666706, -3.979166666666643 ], [ 29.566666666666706, -3.98333333333331 ], [ 29.5625, -3.98333333333331 ], [ 29.5625, -3.979166666666643 ], [ 29.55, -3.979166666666643 ], [ 29.55, -3.98333333333331 ], [ 29.5375, -3.98333333333331 ], [ 29.5375, -3.9875 ], [ 29.520833333333371, -3.9875 ], [ 29.520833333333371, -3.99583333333331 ], [ 29.516666666666705, -3.99583333333331 ], [ 29.516666666666705, -4.0 ], [ 29.504166666666706, -4.0 ], [ 29.504166666666706, -4.004166666666643 ], [ 29.5, -4.004166666666643 ], [ 29.5, -4.00833333333331 ], [ 29.495833333333373, -4.00833333333331 ], [ 29.495833333333373, -4.0125 ], [ 29.491666666666703, -4.0125 ], [ 29.491666666666703, -4.02083333333331 ], [ 29.466666666666704, -4.02083333333331 ], [ 29.466666666666704, -4.016666666666644 ], [ 29.4625, -4.016666666666644 ], [ 29.4625, -4.0125 ], [ 29.458333333333371, -4.0125 ], [ 29.458333333333371, -4.00833333333331 ], [ 29.445833333333372, -4.00833333333331 ], [ 29.445833333333372, -4.004166666666643 ], [ 29.441666666666706, -4.004166666666643 ], [ 29.441666666666706, -3.99583333333331 ], [ 29.445833333333372, -3.99583333333331 ], [ 29.445833333333372, -3.991666666666643 ], [ 29.45, -3.991666666666643 ], [ 29.45, -3.9875 ], [ 29.458333333333371, -3.9875 ], [ 29.458333333333371, -3.975 ], [ 29.4625, -3.975 ], [ 29.4625, -3.97083333333331 ], [ 29.466666666666704, -3.97083333333331 ], [ 29.466666666666704, -3.95833333333331 ], [ 29.470833333333371, -3.95833333333331 ], [ 29.470833333333371, -3.954166666666643 ], [ 29.475, -3.954166666666643 ], [ 29.475, -3.94583333333331 ], [ 29.479166666666703, -3.94583333333331 ], [ 29.479166666666703, -3.941666666666643 ], [ 29.48333333333337, -3.941666666666643 ], [ 29.48333333333337, -3.9375 ], [ 29.4875, -3.9375 ], [ 29.4875, -3.929166666666643 ], [ 29.495833333333373, -3.929166666666643 ], [ 29.495833333333373, -3.92083333333331 ], [ 29.504166666666706, -3.92083333333331 ], [ 29.504166666666706, -3.916666666666643 ], [ 29.508333333333372, -3.916666666666643 ], [ 29.508333333333372, -3.9125 ], [ 29.5125, -3.9125 ], [ 29.5125, -3.90833333333331 ], [ 29.516666666666705, -3.90833333333331 ], [ 29.516666666666705, -3.904166666666643 ], [ 29.525, -3.904166666666643 ], [ 29.525, -3.88333333333331 ], [ 29.529166666666704, -3.88333333333331 ], [ 29.529166666666704, -3.879166666666643 ], [ 29.533333333333371, -3.879166666666643 ], [ 29.533333333333371, -3.875 ], [ 29.5375, -3.875 ], [ 29.5375, -3.8625 ], [ 29.541666666666703, -3.8625 ], [ 29.541666666666703, -3.854166666666643 ], [ 29.5375, -3.854166666666643 ], [ 29.5375, -3.82083333333331 ], [ 29.541666666666703, -3.82083333333331 ], [ 29.541666666666703, -3.80833333333331 ], [ 29.54583333333337, -3.80833333333331 ], [ 29.54583333333337, -3.791666666666643 ], [ 29.55, -3.791666666666643 ], [ 29.55, -3.78333333333331 ], [ 29.554166666666703, -3.78333333333331 ], [ 29.554166666666703, -3.779166666666643 ], [ 29.5625, -3.779166666666643 ], [ 29.5625, -3.775 ], [ 29.575, -3.775 ], [ 29.575, -3.7625 ], [ 29.570833333333372, -3.7625 ], [ 29.570833333333372, -3.75833333333331 ], [ 29.575, -3.75833333333331 ], [ 29.575, -3.75 ], [ 29.566666666666706, -3.75 ], [ 29.566666666666706, -3.729166666666643 ], [ 29.5625, -3.729166666666643 ], [ 29.5625, -3.72083333333331 ], [ 29.558333333333373, -3.72083333333331 ], [ 29.558333333333373, -3.69583333333331 ], [ 29.5625, -3.69583333333331 ], [ 29.5625, -3.68333333333331 ], [ 29.558333333333373, -3.68333333333331 ], [ 29.558333333333373, -3.679166666666643 ], [ 29.55, -3.679166666666643 ], [ 29.55, -3.666666666666643 ], [ 29.54583333333337, -3.666666666666643 ], [ 29.54583333333337, -3.6625 ], [ 29.5375, -3.6625 ], [ 29.5375, -3.65833333333331 ], [ 29.533333333333371, -3.65833333333331 ], [ 29.533333333333371, -3.654166666666643 ], [ 29.529166666666704, -3.654166666666643 ], [ 29.529166666666704, -3.63333333333331 ], [ 29.533333333333371, -3.63333333333331 ], [ 29.533333333333371, -3.629166666666643 ], [ 29.5375, -3.629166666666643 ], [ 29.5375, -3.62083333333331 ], [ 29.541666666666703, -3.62083333333331 ], [ 29.541666666666703, -3.608333333333309 ], [ 29.54583333333337, -3.608333333333309 ], [ 29.54583333333337, -3.6 ], [ 29.55, -3.6 ], [ 29.55, -3.58333333333331 ], [ 29.54583333333337, -3.58333333333331 ], [ 29.54583333333337, -3.579166666666643 ], [ 29.55, -3.579166666666643 ], [ 29.55, -3.566666666666643 ], [ 29.570833333333372, -3.566666666666643 ], [ 29.570833333333372, -3.5625 ], [ 29.575, -3.5625 ], [ 29.575, -3.55833333333331 ], [ 29.579166666666705, -3.55833333333331 ], [ 29.579166666666705, -3.554166666666643 ] ] ] } },
{ "type": "Feature", "properties": { "river": "Kaburantwa", "display_name": "Kaburantwa Basin", "area_km2": 528.52, "confidence_level": "high", "search_label": "Kaburantwa", "feature_type": "basin", "draw_order": 3 }, "geometry": { "type": "Polygon", "coordinates": [ [ [ 29.3125, -2.666666666666642 ], [ 29.316666666666706, -2.666666666666642 ], [ 29.316666666666706, -2.670833333333309 ], [ 29.320833333333372, -2.670833333333309 ], [ 29.320833333333372, -2.666666666666642 ], [ 29.333333333333371, -2.666666666666642 ], [ 29.333333333333371, -2.675 ], [ 29.341666666666704, -2.675 ], [ 29.341666666666704, -2.679166666666642 ], [ 29.345833333333371, -2.679166666666642 ], [ 29.345833333333371, -2.683333333333309 ], [ 29.35, -2.683333333333309 ], [ 29.35, -2.6875 ], [ 29.35833333333337, -2.6875 ], [ 29.35833333333337, -2.683333333333309 ], [ 29.370833333333369, -2.683333333333309 ], [ 29.370833333333369, -2.675 ], [ 29.379166666666706, -2.675 ], [ 29.379166666666706, -2.679166666666642 ], [ 29.3875, -2.679166666666642 ], [ 29.3875, -2.675 ], [ 29.395833333333371, -2.675 ], [ 29.395833333333371, -2.679166666666642 ], [ 29.408333333333371, -2.679166666666642 ], [ 29.408333333333371, -2.691666666666642 ], [ 29.404166666666704, -2.691666666666642 ], [ 29.404166666666704, -2.7125 ], [ 29.408333333333371, -2.7125 ], [ 29.408333333333371, -2.720833333333309 ], [ 29.42083333333337, -2.720833333333309 ], [ 29.42083333333337, -2.725 ], [ 29.425, -2.725 ], [ 29.425, -2.729166666666642 ], [ 29.429166666666703, -2.729166666666642 ], [ 29.429166666666703, -2.733333333333309 ], [ 29.433333333333369, -2.733333333333309 ], [ 29.433333333333369, -2.7375 ], [ 29.429166666666703, -2.7375 ], [ 29.429166666666703, -2.741666666666642 ], [ 29.425, -2.741666666666642 ], [ 29.425, -2.745833333333309 ], [ 29.42083333333337, -2.745833333333309 ], [ 29.42083333333337, -2.754166666666642 ], [ 29.416666666666703, -2.754166666666642 ], [ 29.416666666666703, -2.758333333333309 ], [ 29.433333333333369, -2.758333333333309 ], [ 29.433333333333369, -2.766666666666642 ], [ 29.429166666666703, -2.766666666666642 ], [ 29.429166666666703, -2.783333333333309 ], [ 29.433333333333369, -2.783333333333309 ], [ 29.433333333333369, -2.791666666666642 ], [ 29.4375, -2.791666666666642 ], [ 29.4375, -2.804166666666642 ], [ 29.441666666666706, -2.804166666666642 ], [ 29.441666666666706, -2.808333333333309 ], [ 29.454166666666705, -2.808333333333309 ], [ 29.454166666666705, -2.8125 ], [ 29.458333333333371, -2.8125 ], [ 29.458333333333371, -2.841666666666642 ], [ 29.4625, -2.841666666666642 ], [ 29.4625, -2.854166666666643 ], [ 29.458333333333371, -2.854166666666643 ], [ 29.458333333333371, -2.8625 ], [ 29.454166666666705, -2.8625 ], [ 29.454166666666705, -2.879166666666642 ], [ 29.441666666666706, -2.879166666666642 ], [ 29.441666666666706, -2.883333333333309 ], [ 29.4375, -2.883333333333309 ], [ 29.4375, -2.879166666666642 ], [ 29.433333333333369, -2.879166666666642 ], [ 29.433333333333369, -2.895833333333309 ], [ 29.429166666666703, -2.895833333333309 ], [ 29.429166666666703, -2.9 ], [ 29.425, -2.9 ], [ 29.425, -2.895833333333309 ], [ 29.42083333333337, -2.895833333333309 ], [ 29.42083333333337, -2.9 ], [ 29.416666666666703, -2.9 ], [ 29.416666666666703, -2.904166666666642 ], [ 29.4125, -2.904166666666642 ], [ 29.4125, -2.9125 ], [ 29.408333333333371, -2.9125 ], [ 29.408333333333371, -2.916666666666643 ], [ 29.383333333333372, -2.916666666666643 ], [ 29.383333333333372, -2.920833333333309 ], [ 29.379166666666706, -2.920833333333309 ], [ 29.379166666666706, -2.916666666666643 ], [ 29.35, -2.916666666666643 ], [ 29.35, -2.920833333333309 ], [ 29.333333333333371, -2.920833333333309 ], [ 29.333333333333371, -2.941666666666642 ], [ 29.3125, -2.941666666666642 ], [ 29.3125, -2.945833333333309 ], [ 29.3, -2.945833333333309 ], [ 29.3, -2.958333333333309 ], [ 29.29583333333337, -2.958333333333309 ], [ 29.29583333333337, -2.983333333333309 ], [ 29.291666666666703, -2.983333333333309 ], [ 29.291666666666703, -2.9875 ], [ 29.270833333333371, -2.9875 ], [ 29.270833333333371, -2.991666666666642 ], [ 29.2625, -2.991666666666642 ], [ 29.2625, -2.995833333333309 ], [ 29.2375, -2.995833333333309 ], [ 29.2375, -3.0 ], [ 29.23333333333337, -3.0 ], [ 29.23333333333337, -2.995833333333309 ], [ 29.220833333333371, -2.995833333333309 ], [ 29.220833333333371, -2.991666666666642 ], [ 29.216666666666704, -2.991666666666642 ], [ 29.216666666666704, -2.9875 ], [ 29.2125, -2.9875 ], [ 29.2125, -2.983333333333309 ], [ 29.208333333333371, -2.983333333333309 ], [ 29.208333333333371, -2.966666666666642 ], [ 29.204166666666705, -2.966666666666642 ], [ 29.204166666666705, -2.958333333333309 ], [ 29.2, -2.958333333333309 ], [ 29.2, -2.945833333333309 ], [ 29.195833333333372, -2.945833333333309 ], [ 29.195833333333372, -2.929166666666642 ], [ 29.2, -2.929166666666642 ], [ 29.2, -2.925 ], [ 29.204166666666705, -2.925 ], [ 29.204166666666705, -2.920833333333309 ], [ 29.2, -2.920833333333309 ], [ 29.2, -2.8875 ], [ 29.229166666666703, -2.8875 ], [ 29.229166666666703, -2.883333333333309 ], [ 29.2375, -2.883333333333309 ], [ 29.2375, -2.8625 ], [ 29.25, -2.8625 ], [ 29.25, -2.866666666666642 ], [ 29.254166666666706, -2.866666666666642 ], [ 29.254166666666706, -2.8625 ], [ 29.2625, -2.8625 ], [ 29.2625, -2.858333333333309 ], [ 29.266666666666705, -2.858333333333309 ], [ 29.266666666666705, -2.854166666666643 ], [ 29.270833333333371, -2.854166666666643 ], [ 29.270833333333371, -2.841666666666642 ], [ 29.275, -2.841666666666642 ], [ 29.275, -2.845833333333309 ], [ 29.3, -2.845833333333309 ], [ 29.3, -2.841666666666642 ], [ 29.304166666666703, -2.841666666666642 ], [ 29.304166666666703, -2.8375 ], [ 29.3125, -2.8375 ], [ 29.3125, -2.833333333333309 ], [ 29.320833333333372, -2.833333333333309 ], [ 29.320833333333372, -2.829166666666642 ], [ 29.325, -2.829166666666642 ], [ 29.325, -2.825 ], [ 29.329166666666705, -2.825 ], [ 29.329166666666705, -2.820833333333309 ], [ 29.333333333333371, -2.820833333333309 ], [ 29.333333333333371, -2.8125 ], [ 29.3375, -2.8125 ], [ 29.3375, -2.8 ], [ 29.333333333333371, -2.8 ], [ 29.333333333333371, -2.7875 ], [ 29.329166666666705, -2.7875 ], [ 29.329166666666705, -2.779166666666642 ], [ 29.325, -2.779166666666642 ], [ 29.325, -2.775 ], [ 29.320833333333372, -2.775 ], [ 29.320833333333372, -2.745833333333309 ], [ 29.3125, -2.745833333333309 ], [ 29.3125, -2.7375 ], [ 29.308333333333369, -2.7375 ], [ 29.308333333333369, -2.733333333333309 ], [ 29.304166666666703, -2.733333333333309 ], [ 29.304166666666703, -2.729166666666642 ], [ 29.3, -2.729166666666642 ], [ 29.3, -2.720833333333309 ], [ 29.29583333333337, -2.720833333333309 ], [ 29.29583333333337, -2.7125 ], [ 29.283333333333371, -2.7125 ], [ 29.283333333333371, -2.6875 ], [ 29.2875, -2.6875 ], [ 29.2875, -2.683333333333309 ], [ 29.29583333333337, -2.683333333333309 ], [ 29.29583333333337, -2.679166666666642 ], [ 29.3, -2.679166666666642 ], [ 29.3, -2.675 ], [ 29.308333333333369, -2.675 ], [ 29.308333333333369, -2.670833333333309 ], [ 29.3125, -2.670833333333309 ], [ 29.3125, -2.666666666666642 ] ] ] } },
{ "type": "Feature", "properties": { "river": "Nyamagana", "display_name": "Nyamagana Basin", "area_km2": 454.34, "confidence_level": "high", "search_label": "Nyamagana", "feature_type": "basin", "draw_order": 4 }, "geometry": { "type": "Polygon", "coordinates": [ [ [ 29.225, -2.641666666666642 ], [ 29.2375, -2.641666666666642 ], [ 29.2375, -2.645833333333309 ], [ 29.25, -2.645833333333309 ], [ 29.25, -2.65 ], [ 29.254166666666706, -2.65 ], [ 29.254166666666706, -2.654166666666642 ], [ 29.258333333333372, -2.654166666666642 ], [ 29.258333333333372, -2.6625 ], [ 29.2625, -2.6625 ], [ 29.2625, -2.666666666666642 ], [ 29.266666666666705, -2.666666666666642 ], [ 29.266666666666705, -2.675 ], [ 29.275, -2.675 ], [ 29.275, -2.679166666666642 ], [ 29.279166666666704, -2.679166666666642 ], [ 29.279166666666704, -2.6875 ], [ 29.283333333333371, -2.6875 ], [ 29.283333333333371, -2.7125 ], [ 29.29583333333337, -2.7125 ], [ 29.29583333333337, -2.720833333333309 ], [ 29.3, -2.720833333333309 ], [ 29.3, -2.729166666666642 ], [ 29.304166666666703, -2.729166666666642 ], [ 29.304166666666703, -2.733333333333309 ], [ 29.308333333333369, -2.733333333333309 ], [ 29.308333333333369, -2.7375 ], [ 29.3125, -2.7375 ], [ 29.3125, -2.745833333333309 ], [ 29.320833333333372, -2.745833333333309 ], [ 29.320833333333372, -2.775 ], [ 29.325, -2.775 ], [ 29.325, -2.779166666666642 ], [ 29.329166666666705, -2.779166666666642 ], [ 29.329166666666705, -2.7875 ], [ 29.333333333333371, -2.7875 ], [ 29.333333333333371, -2.8 ], [ 29.3375, -2.8 ], [ 29.3375, -2.8125 ], [ 29.333333333333371, -2.8125 ], [ 29.333333333333371, -2.820833333333309 ], [ 29.329166666666705, -2.820833333333309 ], [ 29.329166666666705, -2.825 ], [ 29.325, -2.825 ], [ 29.325, -2.829166666666642 ], [ 29.320833333333372, -2.829166666666642 ], [ 29.320833333333372, -2.833333333333309 ], [ 29.3125, -2.833333333333309 ], [ 29.3125, -2.8375 ], [ 29.304166666666703, -2.8375 ], [ 29.304166666666703, -2.841666666666642 ], [ 29.3, -2.841666666666642 ], [ 29.3, -2.845833333333309 ], [ 29.275, -2.845833333333309 ], [ 29.275, -2.841666666666642 ], [ 29.270833333333371, -2.841666666666642 ], [ 29.270833333333371, -2.854166666666643 ], [ 29.266666666666705, -2.854166666666643 ], [ 29.266666666666705, -2.858333333333309 ], [ 29.2625, -2.858333333333309 ], [ 29.2625, -2.8625 ], [ 29.254166666666706, -2.8625 ], [ 29.254166666666706, -2.866666666666642 ], [ 29.25, -2.866666666666642 ], [ 29.25, -2.8625 ], [ 29.2375, -2.8625 ], [ 29.2375, -2.883333333333309 ], [ 29.229166666666703, -2.883333333333309 ], [ 29.229166666666703, -2.8875 ], [ 29.1875, -2.8875 ], [ 29.1875, -2.883333333333309 ], [ 29.179166666666703, -2.883333333333309 ], [ 29.179166666666703, -2.879166666666642 ], [ 29.166666666666703, -2.879166666666642 ], [ 29.166666666666703, -2.875 ], [ 29.158333333333371, -2.875 ], [ 29.158333333333371, -2.879166666666642 ], [ 29.154166666666704, -2.879166666666642 ], [ 29.154166666666704, -2.883333333333309 ], [ 29.1375, -2.883333333333309 ], [ 29.1375, -2.895833333333309 ], [ 29.141666666666705, -2.895833333333309 ], [ 29.141666666666705, -2.904166666666642 ], [ 29.129166666666706, -2.904166666666642 ], [ 29.129166666666706, -2.9 ], [ 29.125, -2.9 ], [ 29.125, -2.883333333333309 ], [ 29.120833333333369, -2.883333333333309 ], [ 29.120833333333369, -2.870833333333309 ], [ 29.125, -2.870833333333309 ], [ 29.125, -2.841666666666642 ], [ 29.120833333333369, -2.841666666666642 ], [ 29.120833333333369, -2.816666666666642 ], [ 29.116666666666703, -2.816666666666642 ], [ 29.116666666666703, -2.791666666666642 ], [ 29.1125, -2.791666666666642 ], [ 29.1125, -2.783333333333309 ], [ 29.10833333333337, -2.783333333333309 ], [ 29.10833333333337, -2.775 ], [ 29.1125, -2.775 ], [ 29.1125, -2.770833333333309 ], [ 29.116666666666703, -2.770833333333309 ], [ 29.116666666666703, -2.766666666666642 ], [ 29.141666666666705, -2.766666666666642 ], [ 29.141666666666705, -2.7625 ], [ 29.145833333333371, -2.7625 ], [ 29.145833333333371, -2.758333333333309 ], [ 29.15, -2.758333333333309 ], [ 29.15, -2.754166666666642 ], [ 29.154166666666704, -2.754166666666642 ], [ 29.154166666666704, -2.75 ], [ 29.158333333333371, -2.75 ], [ 29.158333333333371, -2.745833333333309 ], [ 29.1625, -2.745833333333309 ], [ 29.1625, -2.741666666666642 ], [ 29.158333333333371, -2.741666666666642 ], [ 29.158333333333371, -2.7375 ], [ 29.154166666666704, -2.7375 ], [ 29.154166666666704, -2.733333333333309 ], [ 29.15, -2.733333333333309 ], [ 29.15, -2.720833333333309 ], [ 29.145833333333371, -2.720833333333309 ], [ 29.145833333333371, -2.7125 ], [ 29.15, -2.7125 ], [ 29.15, -2.695833333333309 ], [ 29.145833333333371, -2.695833333333309 ], [ 29.145833333333371, -2.683333333333309 ], [ 29.15, -2.683333333333309 ], [ 29.15, -2.679166666666642 ], [ 29.166666666666703, -2.679166666666642 ], [ 29.166666666666703, -2.670833333333309 ], [ 29.17083333333337, -2.670833333333309 ], [ 29.17083333333337, -2.6625 ], [ 29.166666666666703, -2.6625 ], [ 29.166666666666703, -2.658333333333309 ], [ 29.183333333333369, -2.658333333333309 ], [ 29.183333333333369, -2.6625 ], [ 29.191666666666706, -2.6625 ], [ 29.191666666666706, -2.666666666666642 ], [ 29.195833333333372, -2.666666666666642 ], [ 29.195833333333372, -2.670833333333309 ], [ 29.2, -2.670833333333309 ], [ 29.2, -2.679166666666642 ], [ 29.208333333333371, -2.679166666666642 ], [ 29.208333333333371, -2.675 ], [ 29.216666666666704, -2.675 ], [ 29.216666666666704, -2.666666666666642 ], [ 29.2125, -2.666666666666642 ], [ 29.2125, -2.645833333333309 ], [ 29.225, -2.645833333333309 ], [ 29.225, -2.641666666666642 ] ] ] } },
{ "type": "Feature", "properties": { "river": "Mutimbuzi", "display_name": "Mutimbuzi Basin", "area_km2": 271.89, "confidence_level": "high", "search_label": "Mutimbuzi", "feature_type": "basin", "draw_order": 5 }, "geometry": { "type": "Polygon", "coordinates": [ [ [ 29.4875, -3.2125 ], [ 29.508333333333372, -3.2125 ], [ 29.508333333333372, -3.216666666666643 ], [ 29.516666666666705, -3.216666666666643 ], [ 29.516666666666705, -3.220833333333309 ], [ 29.525, -3.220833333333309 ], [ 29.525, -3.225 ], [ 29.529166666666704, -3.225 ], [ 29.529166666666704, -3.229166666666643 ], [ 29.533333333333371, -3.229166666666643 ], [ 29.533333333333371, -3.233333333333309 ], [ 29.5375, -3.233333333333309 ], [ 29.5375, -3.2375 ], [ 29.55, -3.2375 ], [ 29.55, -3.245833333333309 ], [ 29.554166666666703, -3.245833333333309 ], [ 29.554166666666703, -3.254166666666642 ], [ 29.55, -3.254166666666642 ], [ 29.55, -3.266666666666643 ], [ 29.554166666666703, -3.266666666666643 ], [ 29.554166666666703, -3.283333333333309 ], [ 29.55, -3.283333333333309 ], [ 29.55, -3.3125 ], [ 29.54583333333337, -3.3125 ], [ 29.54583333333337, -3.316666666666643 ], [ 29.55, -3.316666666666643 ], [ 29.55, -3.320833333333309 ], [ 29.54583333333337, -3.320833333333309 ], [ 29.54583333333337, -3.329166666666643 ], [ 29.55, -3.329166666666643 ], [ 29.55, -3.341666666666643 ], [ 29.558333333333373, -3.341666666666643 ], [ 29.558333333333373, -3.345833333333309 ], [ 29.5625, -3.345833333333309 ], [ 29.5625, -3.379166666666643 ], [ 29.566666666666706, -3.379166666666643 ], [ 29.566666666666706, -3.383333333333309 ], [ 29.5625, -3.383333333333309 ], [ 29.5625, -3.391666666666643 ], [ 29.566666666666706, -3.391666666666643 ], [ 29.566666666666706, -3.39583333333331 ], [ 29.5625, -3.39583333333331 ], [ 29.5625, -3.4 ], [ 29.558333333333373, -3.4 ], [ 29.558333333333373, -3.404166666666643 ], [ 29.54583333333337, -3.404166666666643 ], [ 29.54583333333337, -3.391666666666643 ], [ 29.55, -3.391666666666643 ], [ 29.55, -3.3875 ], [ 29.54583333333337, -3.3875 ], [ 29.54583333333337, -3.37083333333331 ], [ 29.525, -3.37083333333331 ], [ 29.525, -3.358333333333309 ], [ 29.508333333333372, -3.358333333333309 ], [ 29.508333333333372, -3.354166666666643 ], [ 29.495833333333373, -3.354166666666643 ], [ 29.495833333333373, -3.35 ], [ 29.491666666666703, -3.35 ], [ 29.491666666666703, -3.345833333333309 ], [ 29.479166666666703, -3.345833333333309 ], [ 29.479166666666703, -3.35 ], [ 29.475, -3.35 ], [ 29.475, -3.3625 ], [ 29.45, -3.3625 ], [ 29.45, -3.358333333333309 ], [ 29.445833333333372, -3.358333333333309 ], [ 29.445833333333372, -3.354166666666643 ], [ 29.4375, -3.354166666666643 ], [ 29.4375, -3.35 ], [ 29.429166666666703, -3.35 ], [ 29.429166666666703, -3.345833333333309 ], [ 29.425, -3.345833333333309 ], [ 29.425, -3.3375 ], [ 29.42083333333337, -3.3375 ], [ 29.42083333333337, -3.33333333333331 ], [ 29.416666666666703, -3.33333333333331 ], [ 29.416666666666703, -3.329166666666643 ], [ 29.408333333333371, -3.329166666666643 ], [ 29.408333333333371, -3.325 ], [ 29.404166666666704, -3.325 ], [ 29.404166666666704, -3.320833333333309 ], [ 29.391666666666705, -3.320833333333309 ], [ 29.391666666666705, -3.316666666666643 ], [ 29.370833333333369, -3.316666666666643 ], [ 29.370833333333369, -3.320833333333309 ], [ 29.3625, -3.320833333333309 ], [ 29.3625, -3.316666666666643 ], [ 29.35833333333337, -3.316666666666643 ], [ 29.35833333333337, -3.3125 ], [ 29.345833333333371, -3.3125 ], [ 29.345833333333371, -3.316666666666643 ], [ 29.341666666666704, -3.316666666666643 ], [ 29.341666666666704, -3.320833333333309 ], [ 29.329166666666705, -3.320833333333309 ], [ 29.329166666666705, -3.316666666666643 ], [ 29.325, -3.316666666666643 ], [ 29.325, -3.295833333333309 ], [ 29.329166666666705, -3.295833333333309 ], [ 29.329166666666705, -3.291666666666643 ], [ 29.333333333333371, -3.291666666666643 ], [ 29.333333333333371, -3.283333333333309 ], [ 29.3375, -3.283333333333309 ], [ 29.3375, -3.279166666666643 ], [ 29.354166666666703, -3.279166666666643 ], [ 29.354166666666703, -3.275 ], [ 29.35833333333337, -3.275 ], [ 29.35833333333337, -3.27083333333331 ], [ 29.3625, -3.27083333333331 ], [ 29.3625, -3.258333333333309 ], [ 29.3875, -3.258333333333309 ], [ 29.3875, -3.2625 ], [ 29.395833333333371, -3.2625 ], [ 29.395833333333371, -3.266666666666643 ], [ 29.4125, -3.266666666666643 ], [ 29.4125, -3.2625 ], [ 29.42083333333337, -3.2625 ], [ 29.42083333333337, -3.258333333333309 ], [ 29.425, -3.258333333333309 ], [ 29.425, -3.254166666666642 ], [ 29.4375, -3.254166666666642 ], [ 29.4375, -3.25 ], [ 29.441666666666706, -3.25 ], [ 29.441666666666706, -3.2375 ], [ 29.445833333333372, -3.2375 ], [ 29.445833333333372, -3.233333333333309 ], [ 29.4625, -3.233333333333309 ], [ 29.4625, -3.2375 ], [ 29.475, -3.2375 ], [ 29.475, -3.225 ], [ 29.48333333333337, -3.225 ], [ 29.48333333333337, -3.220833333333309 ], [ 29.4875, -3.220833333333309 ], [ 29.4875, -3.2125 ] ] ] } },
{ "type": "Feature", "properties": { "river": "Nyengwe", "display_name": "Nyengwe Basin", "area_km2": 263.2, "confidence_level": "high", "search_label": "Nyengwe", "feature_type": "basin", "draw_order": 6 }, "geometry": { "type": "Polygon", "coordinates": [ [ [ 29.729166666666703, -3.979166666666643 ], [ 29.73333333333337, -3.979166666666643 ], [ 29.73333333333337, -3.99583333333331 ], [ 29.75, -3.99583333333331 ], [ 29.75, -4.0 ], [ 29.754166666666706, -4.0 ], [ 29.754166666666706, -4.004166666666643 ], [ 29.766666666666705, -4.004166666666643 ], [ 29.766666666666705, -4.00833333333331 ], [ 29.770833333333371, -4.00833333333331 ], [ 29.770833333333371, -4.0125 ], [ 29.766666666666705, -4.0125 ], [ 29.766666666666705, -4.016666666666644 ], [ 29.7625, -4.016666666666644 ], [ 29.7625, -4.02083333333331 ], [ 29.745833333333373, -4.02083333333331 ], [ 29.745833333333373, -4.025 ], [ 29.741666666666703, -4.025 ], [ 29.741666666666703, -4.03333333333331 ], [ 29.7375, -4.03333333333331 ], [ 29.7375, -4.0625 ], [ 29.73333333333337, -4.0625 ], [ 29.73333333333337, -4.07083333333331 ], [ 29.7375, -4.07083333333331 ], [ 29.7375, -4.075 ], [ 29.741666666666703, -4.075 ], [ 29.741666666666703, -4.079166666666644 ], [ 29.745833333333373, -4.079166666666644 ], [ 29.745833333333373, -4.08333333333331 ], [ 29.758333333333372, -4.08333333333331 ], [ 29.758333333333372, -4.1 ], [ 29.754166666666706, -4.1 ], [ 29.754166666666706, -4.104166666666643 ], [ 29.75, -4.104166666666643 ], [ 29.75, -4.12083333333331 ], [ 29.745833333333373, -4.12083333333331 ], [ 29.745833333333373, -4.125 ], [ 29.7375, -4.125 ], [ 29.7375, -4.1375 ], [ 29.73333333333337, -4.1375 ], [ 29.73333333333337, -4.14583333333331 ], [ 29.725, -4.14583333333331 ], [ 29.725, -4.141666666666644 ], [ 29.7125, -4.141666666666644 ], [ 29.7125, -4.1375 ], [ 29.7, -4.1375 ], [ 29.7, -4.141666666666644 ], [ 29.675, -4.141666666666644 ], [ 29.675, -4.1375 ], [ 29.67083333333337, -4.1375 ], [ 29.67083333333337, -4.13333333333331 ], [ 29.666666666666703, -4.13333333333331 ], [ 29.666666666666703, -4.125 ], [ 29.658333333333371, -4.125 ], [ 29.658333333333371, -4.12083333333331 ], [ 29.65, -4.12083333333331 ], [ 29.65, -4.125 ], [ 29.645833333333371, -4.125 ], [ 29.645833333333371, -4.129166666666643 ], [ 29.641666666666705, -4.129166666666643 ], [ 29.641666666666705, -4.1375 ], [ 29.633333333333372, -4.1375 ], [ 29.633333333333372, -4.14583333333331 ], [ 29.629166666666706, -4.14583333333331 ], [ 29.629166666666706, -4.15 ], [ 29.625, -4.15 ], [ 29.625, -4.154166666666644 ], [ 29.620833333333373, -4.154166666666644 ], [ 29.620833333333373, -4.15833333333331 ], [ 29.616666666666703, -4.15833333333331 ], [ 29.616666666666703, -4.166666666666643 ], [ 29.60833333333337, -4.166666666666643 ], [ 29.60833333333337, -4.17083333333331 ], [ 29.604166666666703, -4.17083333333331 ], [ 29.604166666666703, -4.1875 ], [ 29.6, -4.1875 ], [ 29.6, -4.19583333333331 ], [ 29.595833333333371, -4.19583333333331 ], [ 29.595833333333371, -4.2 ], [ 29.5875, -4.2 ], [ 29.5875, -4.19583333333331 ], [ 29.583333333333371, -4.19583333333331 ], [ 29.583333333333371, -4.18333333333331 ], [ 29.579166666666705, -4.18333333333331 ], [ 29.579166666666705, -4.17083333333331 ], [ 29.5625, -4.17083333333331 ], [ 29.5625, -4.175 ], [ 29.54583333333337, -4.175 ], [ 29.54583333333337, -4.17083333333331 ], [ 29.533333333333371, -4.17083333333331 ], [ 29.533333333333371, -4.1625 ], [ 29.5375, -4.1625 ], [ 29.5375, -4.154166666666644 ], [ 29.541666666666703, -4.154166666666644 ], [ 29.541666666666703, -4.15 ], [ 29.55, -4.15 ], [ 29.55, -4.141666666666644 ], [ 29.554166666666703, -4.141666666666644 ], [ 29.554166666666703, -4.13333333333331 ], [ 29.558333333333373, -4.13333333333331 ], [ 29.558333333333373, -4.129166666666643 ], [ 29.5625, -4.129166666666643 ], [ 29.5625, -4.125 ], [ 29.566666666666706, -4.125 ], [ 29.566666666666706, -4.116666666666643 ], [ 29.570833333333372, -4.116666666666643 ], [ 29.570833333333372, -4.10833333333331 ], [ 29.575, -4.10833333333331 ], [ 29.575, -4.1 ], [ 29.579166666666705, -4.1 ], [ 29.579166666666705, -4.09583333333331 ], [ 29.583333333333371, -4.09583333333331 ], [ 29.583333333333371, -4.091666666666644 ], [ 29.5875, -4.091666666666644 ], [ 29.5875, -4.0875 ], [ 29.595833333333371, -4.0875 ], [ 29.595833333333371, -4.079166666666644 ], [ 29.6125, -4.079166666666644 ], [ 29.6125, -4.07083333333331 ], [ 29.616666666666703, -4.07083333333331 ], [ 29.616666666666703, -4.0625 ], [ 29.620833333333373, -4.0625 ], [ 29.620833333333373, -4.054166666666643 ], [ 29.629166666666706, -4.054166666666643 ], [ 29.629166666666706, -4.05 ], [ 29.633333333333372, -4.05 ], [ 29.633333333333372, -4.041666666666643 ], [ 29.654166666666704, -4.041666666666643 ], [ 29.654166666666704, -4.0375 ], [ 29.658333333333371, -4.0375 ], [ 29.658333333333371, -4.03333333333331 ], [ 29.666666666666703, -4.03333333333331 ], [ 29.666666666666703, -4.025 ], [ 29.67083333333337, -4.025 ], [ 29.67083333333337, -4.016666666666644 ], [ 29.675, -4.016666666666644 ], [ 29.675, -4.00833333333331 ], [ 29.683333333333373, -4.00833333333331 ], [ 29.683333333333373, -3.99583333333331 ], [ 29.691666666666706, -3.99583333333331 ], [ 29.691666666666706, -4.004166666666643 ], [ 29.7125, -4.004166666666643 ], [ 29.7125, -4.0 ], [ 29.716666666666704, -4.0 ], [ 29.716666666666704, -3.99583333333331 ], [ 29.720833333333371, -3.99583333333331 ], [ 29.720833333333371, -3.9875 ], [ 29.725, -3.9875 ], [ 29.725, -3.98333333333331 ], [ 29.729166666666703, -3.98333333333331 ], [ 29.729166666666703, -3.979166666666643 ] ] ] } },
{ "type": "Feature", "properties": { "river": "Mpanda", "display_name": "Mpanda Basin", "area_km2": 243.75, "confidence_level": "high", "search_label": "Mpanda", "feature_type": "basin", "draw_order": 7 }, "geometry": { "type": "Polygon", "coordinates": [ [ [ 29.5375, -3.016666666666643 ], [ 29.541666666666703, -3.016666666666643 ], [ 29.541666666666703, -3.029166666666642 ], [ 29.54583333333337, -3.029166666666642 ], [ 29.54583333333337, -3.041666666666643 ], [ 29.55, -3.041666666666643 ], [ 29.55, -3.05 ], [ 29.554166666666703, -3.05 ], [ 29.554166666666703, -3.054166666666643 ], [ 29.558333333333373, -3.054166666666643 ], [ 29.558333333333373, -3.0625 ], [ 29.5625, -3.0625 ], [ 29.5625, -3.070833333333309 ], [ 29.566666666666706, -3.070833333333309 ], [ 29.566666666666706, -3.1 ], [ 29.5625, -3.1 ], [ 29.5625, -3.108333333333309 ], [ 29.554166666666703, -3.108333333333309 ], [ 29.554166666666703, -3.120833333333309 ], [ 29.55, -3.120833333333309 ], [ 29.55, -3.125 ], [ 29.54583333333337, -3.125 ], [ 29.54583333333337, -3.129166666666642 ], [ 29.5375, -3.129166666666642 ], [ 29.5375, -3.1375 ], [ 29.541666666666703, -3.1375 ], [ 29.541666666666703, -3.145833333333309 ], [ 29.55, -3.145833333333309 ], [ 29.55, -3.15 ], [ 29.554166666666703, -3.15 ], [ 29.554166666666703, -3.158333333333309 ], [ 29.5625, -3.158333333333309 ], [ 29.5625, -3.1625 ], [ 29.558333333333373, -3.1625 ], [ 29.558333333333373, -3.166666666666643 ], [ 29.554166666666703, -3.166666666666643 ], [ 29.554166666666703, -3.175 ], [ 29.55, -3.175 ], [ 29.55, -3.191666666666642 ], [ 29.54583333333337, -3.191666666666642 ], [ 29.54583333333337, -3.2 ], [ 29.541666666666703, -3.2 ], [ 29.541666666666703, -3.2125 ], [ 29.5375, -3.2125 ], [ 29.5375, -3.225 ], [ 29.533333333333371, -3.225 ], [ 29.533333333333371, -3.229166666666643 ], [ 29.529166666666704, -3.229166666666643 ], [ 29.529166666666704, -3.225 ], [ 29.525, -3.225 ], [ 29.525, -3.220833333333309 ], [ 29.516666666666705, -3.220833333333309 ], [ 29.516666666666705, -3.216666666666643 ], [ 29.508333333333372, -3.216666666666643 ], [ 29.508333333333372, -3.2125 ], [ 29.5, -3.2125 ], [ 29.5, -3.20833333333331 ], [ 29.495833333333373, -3.20833333333331 ], [ 29.495833333333373, -3.204166666666643 ], [ 29.491666666666703, -3.204166666666643 ], [ 29.491666666666703, -3.2 ], [ 29.4875, -3.2 ], [ 29.4875, -3.195833333333309 ], [ 29.48333333333337, -3.195833333333309 ], [ 29.48333333333337, -3.183333333333309 ], [ 29.479166666666703, -3.183333333333309 ], [ 29.479166666666703, -3.179166666666643 ], [ 29.475, -3.179166666666643 ], [ 29.475, -3.175 ], [ 29.470833333333371, -3.175 ], [ 29.470833333333371, -3.1625 ], [ 29.466666666666704, -3.1625 ], [ 29.466666666666704, -3.158333333333309 ], [ 29.4625, -3.158333333333309 ], [ 29.4625, -3.154166666666642 ], [ 29.454166666666705, -3.154166666666642 ], [ 29.454166666666705, -3.15 ], [ 29.445833333333372, -3.15 ], [ 29.445833333333372, -3.145833333333309 ], [ 29.433333333333369, -3.145833333333309 ], [ 29.433333333333369, -3.15 ], [ 29.429166666666703, -3.15 ], [ 29.429166666666703, -3.133333333333309 ], [ 29.425, -3.133333333333309 ], [ 29.425, -3.129166666666642 ], [ 29.42083333333337, -3.129166666666642 ], [ 29.42083333333337, -3.133333333333309 ], [ 29.4125, -3.133333333333309 ], [ 29.4125, -3.129166666666642 ], [ 29.408333333333371, -3.129166666666642 ], [ 29.408333333333371, -3.125 ], [ 29.404166666666704, -3.125 ], [ 29.404166666666704, -3.120833333333309 ], [ 29.395833333333371, -3.120833333333309 ], [ 29.395833333333371, -3.1125 ], [ 29.391666666666705, -3.1125 ], [ 29.391666666666705, -3.108333333333309 ], [ 29.3875, -3.108333333333309 ], [ 29.3875, -3.1 ], [ 29.383333333333372, -3.1 ], [ 29.383333333333372, -3.095833333333309 ], [ 29.3875, -3.095833333333309 ], [ 29.3875, -3.0875 ], [ 29.391666666666705, -3.0875 ], [ 29.391666666666705, -3.083333333333309 ], [ 29.4, -3.083333333333309 ], [ 29.4, -3.079166666666643 ], [ 29.408333333333371, -3.079166666666643 ], [ 29.408333333333371, -3.075 ], [ 29.4125, -3.075 ], [ 29.4125, -3.070833333333309 ], [ 29.42083333333337, -3.070833333333309 ], [ 29.42083333333337, -3.045833333333309 ], [ 29.425, -3.045833333333309 ], [ 29.425, -3.05 ], [ 29.429166666666703, -3.05 ], [ 29.429166666666703, -3.054166666666643 ], [ 29.4375, -3.054166666666643 ], [ 29.4375, -3.058333333333309 ], [ 29.441666666666706, -3.058333333333309 ], [ 29.441666666666706, -3.0625 ], [ 29.445833333333372, -3.0625 ], [ 29.445833333333372, -3.066666666666642 ], [ 29.458333333333371, -3.066666666666642 ], [ 29.458333333333371, -3.0625 ], [ 29.470833333333371, -3.0625 ], [ 29.470833333333371, -3.058333333333309 ], [ 29.479166666666703, -3.058333333333309 ], [ 29.479166666666703, -3.054166666666643 ], [ 29.495833333333373, -3.054166666666643 ], [ 29.495833333333373, -3.05 ], [ 29.504166666666706, -3.05 ], [ 29.504166666666706, -3.045833333333309 ], [ 29.5125, -3.045833333333309 ], [ 29.5125, -3.041666666666643 ], [ 29.520833333333371, -3.041666666666643 ], [ 29.520833333333371, -3.033333333333309 ], [ 29.516666666666705, -3.033333333333309 ], [ 29.516666666666705, -3.029166666666642 ], [ 29.525, -3.029166666666642 ], [ 29.525, -3.025 ], [ 29.533333333333371, -3.025 ], [ 29.533333333333371, -3.020833333333309 ], [ 29.5375, -3.020833333333309 ], [ 29.5375, -3.016666666666643 ] ] ] } },
{ "type": "Feature", "properties": { "river": "Jiji", "display_name": "Jiji Basin", "area_km2": 195.82, "confidence_level": "high", "search_label": "Jiji", "feature_type": "basin", "draw_order": 8 }, "geometry": { "type": "Polygon", "coordinates": [ [ [ 29.67083333333337, -3.8375 ], [ 29.683333333333373, -3.8375 ], [ 29.683333333333373, -3.841666666666643 ], [ 29.691666666666706, -3.841666666666643 ], [ 29.691666666666706, -3.84583333333331 ], [ 29.7, -3.84583333333331 ], [ 29.7, -3.854166666666643 ], [ 29.695833333333372, -3.854166666666643 ], [ 29.695833333333372, -3.866666666666643 ], [ 29.704166666666705, -3.866666666666643 ], [ 29.704166666666705, -3.87083333333331 ], [ 29.708333333333371, -3.87083333333331 ], [ 29.708333333333371, -3.88333333333331 ], [ 29.720833333333371, -3.88333333333331 ], [ 29.720833333333371, -3.891666666666643 ], [ 29.73333333333337, -3.891666666666643 ], [ 29.73333333333337, -3.8875 ], [ 29.754166666666706, -3.8875 ], [ 29.754166666666706, -3.88333333333331 ], [ 29.758333333333372, -3.88333333333331 ], [ 29.758333333333372, -3.879166666666643 ], [ 29.7625, -3.879166666666643 ], [ 29.7625, -3.87083333333331 ], [ 29.766666666666705, -3.87083333333331 ], [ 29.766666666666705, -3.866666666666643 ], [ 29.770833333333371, -3.866666666666643 ], [ 29.770833333333371, -3.85833333333331 ], [ 29.79583333333337, -3.85833333333331 ], [ 29.79583333333337, -3.854166666666643 ], [ 29.808333333333373, -3.854166666666643 ], [ 29.808333333333373, -3.85833333333331 ], [ 29.8125, -3.85833333333331 ], [ 29.8125, -3.866666666666643 ], [ 29.816666666666706, -3.866666666666643 ], [ 29.816666666666706, -3.875 ], [ 29.820833333333372, -3.875 ], [ 29.820833333333372, -3.879166666666643 ], [ 29.829166666666705, -3.879166666666643 ], [ 29.829166666666705, -3.8875 ], [ 29.833333333333371, -3.8875 ], [ 29.833333333333371, -3.9125 ], [ 29.8375, -3.9125 ], [ 29.8375, -3.90833333333331 ], [ 29.845833333333371, -3.90833333333331 ], [ 29.845833333333371, -3.92083333333331 ], [ 29.854166666666703, -3.92083333333331 ], [ 29.854166666666703, -3.941666666666643 ], [ 29.85, -3.941666666666643 ], [ 29.85, -3.94583333333331 ], [ 29.845833333333371, -3.94583333333331 ], [ 29.845833333333371, -3.95833333333331 ], [ 29.841666666666704, -3.95833333333331 ], [ 29.841666666666704, -3.975 ], [ 29.8375, -3.975 ], [ 29.8375, -3.991666666666643 ], [ 29.845833333333371, -3.991666666666643 ], [ 29.845833333333371, -3.99583333333331 ], [ 29.841666666666704, -3.99583333333331 ], [ 29.841666666666704, -4.004166666666643 ], [ 29.8375, -4.004166666666643 ], [ 29.8375, -4.0125 ], [ 29.829166666666705, -4.0125 ], [ 29.829166666666705, -4.016666666666644 ], [ 29.820833333333372, -4.016666666666644 ], [ 29.820833333333372, -3.9875 ], [ 29.816666666666706, -3.9875 ], [ 29.816666666666706, -3.98333333333331 ], [ 29.808333333333373, -3.98333333333331 ], [ 29.808333333333373, -3.9875 ], [ 29.79583333333337, -3.9875 ], [ 29.79583333333337, -3.98333333333331 ], [ 29.791666666666703, -3.98333333333331 ], [ 29.791666666666703, -3.979166666666643 ], [ 29.7875, -3.979166666666643 ], [ 29.7875, -3.975 ], [ 29.783333333333371, -3.975 ], [ 29.783333333333371, -3.966666666666643 ], [ 29.766666666666705, -3.966666666666643 ], [ 29.766666666666705, -3.94583333333331 ], [ 29.7625, -3.94583333333331 ], [ 29.7625, -3.941666666666643 ], [ 29.754166666666706, -3.941666666666643 ], [ 29.754166666666706, -3.9375 ], [ 29.75, -3.9375 ], [ 29.75, -3.941666666666643 ], [ 29.741666666666703, -3.941666666666643 ], [ 29.741666666666703, -3.925 ], [ 29.73333333333337, -3.925 ], [ 29.73333333333337, -3.916666666666643 ], [ 29.716666666666704, -3.916666666666643 ], [ 29.716666666666704, -3.9125 ], [ 29.679166666666703, -3.9125 ], [ 29.679166666666703, -3.92083333333331 ], [ 29.6625, -3.92083333333331 ], [ 29.6625, -3.93333333333331 ], [ 29.658333333333371, -3.93333333333331 ], [ 29.658333333333371, -3.9375 ], [ 29.654166666666704, -3.9375 ], [ 29.654166666666704, -3.93333333333331 ], [ 29.65, -3.93333333333331 ], [ 29.65, -3.929166666666643 ], [ 29.645833333333371, -3.929166666666643 ], [ 29.645833333333371, -3.925 ], [ 29.641666666666705, -3.925 ], [ 29.641666666666705, -3.916666666666643 ], [ 29.620833333333373, -3.916666666666643 ], [ 29.620833333333373, -3.9125 ], [ 29.625, -3.9125 ], [ 29.625, -3.90833333333331 ], [ 29.6375, -3.90833333333331 ], [ 29.6375, -3.904166666666643 ], [ 29.641666666666705, -3.904166666666643 ], [ 29.641666666666705, -3.891666666666643 ], [ 29.65, -3.891666666666643 ], [ 29.65, -3.88333333333331 ], [ 29.658333333333371, -3.88333333333331 ], [ 29.658333333333371, -3.879166666666643 ], [ 29.6625, -3.879166666666643 ], [ 29.6625, -3.85833333333331 ], [ 29.666666666666703, -3.85833333333331 ], [ 29.666666666666703, -3.841666666666643 ], [ 29.67083333333337, -3.841666666666643 ], [ 29.67083333333337, -3.8375 ] ] ] } },
{ "type": "Feature", "properties": { "river": "Buzimba", "display_name": "Buzimba Basin", "area_km2": 128.28, "confidence_level": "high", "search_label": "Buzimba", "feature_type": "basin", "draw_order": 9 }, "geometry": { "type": "Polygon", "coordinates": [ [ [ 29.583333333333371, -3.975 ], [ 29.595833333333371, -3.975 ], [ 29.595833333333371, -3.979166666666643 ], [ 29.60833333333337, -3.979166666666643 ], [ 29.60833333333337, -3.98333333333331 ], [ 29.6125, -3.98333333333331 ], [ 29.6125, -3.991666666666643 ], [ 29.616666666666703, -3.991666666666643 ], [ 29.616666666666703, -3.99583333333331 ], [ 29.625, -3.99583333333331 ], [ 29.625, -4.0 ], [ 29.6375, -4.0 ], [ 29.6375, -4.004166666666643 ], [ 29.65, -4.004166666666643 ], [ 29.65, -4.00833333333331 ], [ 29.645833333333371, -4.00833333333331 ], [ 29.645833333333371, -4.0125 ], [ 29.6625, -4.0125 ], [ 29.6625, -4.00833333333331 ], [ 29.666666666666703, -4.00833333333331 ], [ 29.666666666666703, -4.004166666666643 ], [ 29.675, -4.004166666666643 ], [ 29.675, -4.016666666666644 ], [ 29.67083333333337, -4.016666666666644 ], [ 29.67083333333337, -4.025 ], [ 29.666666666666703, -4.025 ], [ 29.666666666666703, -4.03333333333331 ], [ 29.658333333333371, -4.03333333333331 ], [ 29.658333333333371, -4.0375 ], [ 29.654166666666704, -4.0375 ], [ 29.654166666666704, -4.041666666666643 ], [ 29.633333333333372, -4.041666666666643 ], [ 29.633333333333372, -4.05 ], [ 29.629166666666706, -4.05 ], [ 29.629166666666706, -4.054166666666643 ], [ 29.620833333333373, -4.054166666666643 ], [ 29.620833333333373, -4.0625 ], [ 29.616666666666703, -4.0625 ], [ 29.616666666666703, -4.07083333333331 ], [ 29.6125, -4.07083333333331 ], [ 29.6125, -4.079166666666644 ], [ 29.595833333333371, -4.079166666666644 ], [ 29.595833333333371, -4.075 ], [ 29.591666666666704, -4.075 ], [ 29.591666666666704, -4.066666666666643 ], [ 29.579166666666705, -4.066666666666643 ], [ 29.579166666666705, -4.05833333333331 ], [ 29.575, -4.05833333333331 ], [ 29.575, -4.054166666666643 ], [ 29.570833333333372, -4.054166666666643 ], [ 29.570833333333372, -4.04583333333331 ], [ 29.55, -4.04583333333331 ], [ 29.55, -4.05 ], [ 29.54583333333337, -4.05 ], [ 29.54583333333337, -4.04583333333331 ], [ 29.541666666666703, -4.04583333333331 ], [ 29.541666666666703, -4.0375 ], [ 29.533333333333371, -4.0375 ], [ 29.533333333333371, -4.03333333333331 ], [ 29.520833333333371, -4.03333333333331 ], [ 29.520833333333371, -4.0375 ], [ 29.5125, -4.0375 ], [ 29.5125, -4.04583333333331 ], [ 29.504166666666706, -4.04583333333331 ], [ 29.504166666666706, -4.05 ], [ 29.5, -4.05 ], [ 29.5, -4.054166666666643 ], [ 29.48333333333337, -4.054166666666643 ], [ 29.48333333333337, -4.05 ], [ 29.479166666666703, -4.05 ], [ 29.479166666666703, -4.04583333333331 ], [ 29.475, -4.04583333333331 ], [ 29.475, -4.041666666666643 ], [ 29.479166666666703, -4.041666666666643 ], [ 29.479166666666703, -4.0375 ], [ 29.495833333333373, -4.0375 ], [ 29.495833333333373, -4.03333333333331 ], [ 29.5, -4.03333333333331 ], [ 29.5, -4.02083333333331 ], [ 29.504166666666706, -4.02083333333331 ], [ 29.504166666666706, -4.00833333333331 ], [ 29.5, -4.00833333333331 ], [ 29.5, -4.004166666666643 ], [ 29.504166666666706, -4.004166666666643 ], [ 29.504166666666706, -4.0 ], [ 29.516666666666705, -4.0 ], [ 29.516666666666705, -3.99583333333331 ], [ 29.520833333333371, -3.99583333333331 ], [ 29.520833333333371, -3.9875 ], [ 29.5375, -3.9875 ], [ 29.5375, -3.98333333333331 ], [ 29.55, -3.98333333333331 ], [ 29.55, -3.979166666666643 ], [ 29.5625, -3.979166666666643 ], [ 29.5625, -3.98333333333331 ], [ 29.566666666666706, -3.98333333333331 ], [ 29.566666666666706, -3.979166666666643 ], [ 29.583333333333371, -3.979166666666643 ], [ 29.583333333333371, -3.975 ] ] ] } },
{ "type": "Feature", "properties": { "river": "Nyakagunda", "display_name": "Nyakagunda Basin", "area_km2": 128.15, "confidence_level": "high", "search_label": "Nyakagunda", "feature_type": "basin", "draw_order": 10 }, "geometry": { "type": "Polygon", "coordinates": [ [ [ 29.10833333333337, -2.620833333333309 ], [ 29.1125, -2.620833333333309 ], [ 29.1125, -2.625 ], [ 29.116666666666703, -2.625 ], [ 29.116666666666703, -2.629166666666642 ], [ 29.120833333333369, -2.629166666666642 ], [ 29.120833333333369, -2.625 ], [ 29.145833333333371, -2.625 ], [ 29.145833333333371, -2.629166666666642 ], [ 29.154166666666704, -2.629166666666642 ], [ 29.154166666666704, -2.6375 ], [ 29.1625, -2.6375 ], [ 29.1625, -2.641666666666642 ], [ 29.166666666666703, -2.641666666666642 ], [ 29.166666666666703, -2.65 ], [ 29.17083333333337, -2.65 ], [ 29.17083333333337, -2.658333333333309 ], [ 29.166666666666703, -2.658333333333309 ], [ 29.166666666666703, -2.6625 ], [ 29.17083333333337, -2.6625 ], [ 29.17083333333337, -2.670833333333309 ], [ 29.166666666666703, -2.670833333333309 ], [ 29.166666666666703, -2.679166666666642 ], [ 29.15, -2.679166666666642 ], [ 29.15, -2.683333333333309 ], [ 29.145833333333371, -2.683333333333309 ], [ 29.145833333333371, -2.695833333333309 ], [ 29.15, -2.695833333333309 ], [ 29.15, -2.7125 ], [ 29.145833333333371, -2.7125 ], [ 29.145833333333371, -2.720833333333309 ], [ 29.15, -2.720833333333309 ], [ 29.15, -2.733333333333309 ], [ 29.154166666666704, -2.733333333333309 ], [ 29.154166666666704, -2.7375 ], [ 29.158333333333371, -2.7375 ], [ 29.158333333333371, -2.741666666666642 ], [ 29.1625, -2.741666666666642 ], [ 29.1625, -2.745833333333309 ], [ 29.158333333333371, -2.745833333333309 ], [ 29.158333333333371, -2.75 ], [ 29.154166666666704, -2.75 ], [ 29.154166666666704, -2.754166666666642 ], [ 29.15, -2.754166666666642 ], [ 29.15, -2.758333333333309 ], [ 29.145833333333371, -2.758333333333309 ], [ 29.145833333333371, -2.7625 ], [ 29.141666666666705, -2.7625 ], [ 29.141666666666705, -2.766666666666642 ], [ 29.116666666666703, -2.766666666666642 ], [ 29.116666666666703, -2.770833333333309 ], [ 29.1125, -2.770833333333309 ], [ 29.1125, -2.775 ], [ 29.104166666666703, -2.775 ], [ 29.104166666666703, -2.770833333333309 ], [ 29.083333333333371, -2.770833333333309 ], [ 29.083333333333371, -2.766666666666642 ], [ 29.079166666666705, -2.766666666666642 ], [ 29.079166666666705, -2.7625 ], [ 29.075, -2.7625 ], [ 29.075, -2.758333333333309 ], [ 29.066666666666706, -2.758333333333309 ], [ 29.066666666666706, -2.745833333333309 ], [ 29.070833333333372, -2.745833333333309 ], [ 29.070833333333372, -2.716666666666642 ], [ 29.075, -2.716666666666642 ], [ 29.075, -2.7125 ], [ 29.079166666666705, -2.7125 ], [ 29.079166666666705, -2.708333333333309 ], [ 29.083333333333371, -2.708333333333309 ], [ 29.083333333333371, -2.704166666666642 ], [ 29.0875, -2.704166666666642 ], [ 29.0875, -2.7 ], [ 29.091666666666704, -2.7 ], [ 29.091666666666704, -2.695833333333309 ], [ 29.095833333333371, -2.695833333333309 ], [ 29.095833333333371, -2.6625 ], [ 29.091666666666704, -2.6625 ], [ 29.091666666666704, -2.658333333333309 ], [ 29.0875, -2.658333333333309 ], [ 29.0875, -2.65 ], [ 29.083333333333371, -2.65 ], [ 29.083333333333371, -2.641666666666642 ], [ 29.0875, -2.641666666666642 ], [ 29.0875, -2.633333333333309 ], [ 29.091666666666704, -2.633333333333309 ], [ 29.091666666666704, -2.629166666666642 ], [ 29.095833333333371, -2.629166666666642 ], [ 29.095833333333371, -2.625 ], [ 29.10833333333337, -2.625 ], [ 29.10833333333337, -2.620833333333309 ] ] ] } }
]
}
