{
"type": "FeatureCollection",
"name": "stations",
"crs": { "type": "name", "properties": { "name": "urn:ogc:def:crs:OGC:1.3:CRS84" } },
"features": [
{ "type": "Feature", "properties": { "station_name": "Buzimba (Gatete)", "river": "Buzimba", "display_name": "Buzimba (Gatete)", "latitude": -4.05, "longitude": 29.48, "search_label": "Buzimba (Gatete)", "feature_type": "station" }, "geometry": { "type": "Point", "coordinates": [ 29.48, -4.05 ] } },
{ "type": "Feature", "properties": { "station_name": "Jiji (Ndago)", "river": "Jiji", "display_name": "Jiji (Ndago)", "latitude": -3.92, "longitude": 29.64, "search_label": "Jiji (Ndago)", "feature_type": "station" }, "geometry": { "type": "Point", "coordinates": [ 29.64, -3.92 ] } },
{ "type": "Feature", "properties": { "station_name": "Kaburantwa (Mission)", "river": "Kaburantwa", "display_name": "Kaburantwa (Mission)", "latitude": -2.99, "longitude": 29.22, "search_label": "Kaburantwa (Mission)", "feature_type": "station" }, "geometry": { "type": "Point", "coordinates": [ 29.22, -2.99 ] } },
{ "type": "Feature", "properties": { "station_name": "Mpanda (Gatura)", "river": "Mpanda", "display_name": "Mpanda (Gatura)", "latitude": -3.12, "longitude": 29.4, "search_label": "Mpanda (Gatura)", "feature_type": "station" }, "geometry": { "type": "Point", "coordinates": [ 29.4, -3.12 ] } },
{ "type": "Feature", "properties": { "station_name": "Mulembwe (Mutambara)", "river": "Mulembwe", "display_name": "Mulembwe (Mutambara)", "latitude": -4.0, "longitude": 29.44, "search_label": "Mulembwe (Mutambara)", "feature_type": "station" }, "geometry": { "type": "Point", "coordinates": [ 29.44, -4.0 ] } },
{ "type": "Feature", "properties": { "station_name": "Mutimbuzi (Pont Aeroport)", "river": "Mutimbuzi", "display_name": "Mutimbuzi (Pont Aeroport)", "latitude": -3.32, "longitude": 29.33, "search_label": "Mutimbuzi (Pont Aeroport)", "feature_type": "station" }, "geometry": { "type": "Point", "coordinates": [ 29.33, -3.32 ] } },
{ "type": "Feature", "properties": { "station_name": "Nyakagunda (Musenyi)", "river": "Nyakagunda", "display_name": "Nyakagunda (Musenyi)", "latitude": -2.76, "longitude": 29.08, "search_label": "Nyakagunda (Musenyi)", "feature_type": "station" }, "geometry": { "type": "Point", "coordinates": [ 29.08, -2.76 ] } },
{ "type": "Feature", "properties": { "station_name": "Nyamagana (Murambi)", "river": "Nyamagana", "display_name": "Nyamagana (Murambi)", "latitude": -2.9, "longitude": 29.13, "search_label": "Nyamagana (Murambi)", "feature_type": "station" }, "geometry": { "type": "Point", "coordinates": [ 29.13, -2.9 ] } },
{ "type": "Feature", "properties": { "station_name": "Nyengwe (Rimbo)", "river": "Nyengwe", "display_name": "Nyengwe (Rimbo)", "latitude": -4.17, "longitude": 29.54, "search_label": "Nyengwe (Rimbo)", "feature_type": "station" }, "geometry": { "type": "Point", "coordinates": [ 29.54, -4.17 ] } },
{ "type": "Feature", "properties": { "station_name": "Rusizi (Gatumba)", "river": "Rusizi", "display_name": "Rusizi (Gatumba)", "latitude": -3.34, "longitude": 29.27, "search_label": "Rusizi (Gatumba)", "feature_type": "station" }, "geometry": { "type": "Point", "coordinates": [ 29.27, -3.34 ] } }
]
}
